<?xml version="1.0" encoding="UTF-8"?>
<gpx creator="https://gpx.studio" version="1.1" xmlns="http://www.topografix.com/GPX/1/1" xmlns:xsi="http://www.w3.org/2001/XMLSchema-instance" xsi:schemaLocation="http://www.topografix.com/GPX/1/1 http://www.topografix.com/GPX/1/1/gpx.xsd http://www.garmin.com/xmlschemas/GpxExtensions/v3 http://www.garmin.com/xmlschemas/GpxExtensionsv3.xsd http://www.garmin.com/xmlschemas/TrackPointExtension/v1 http://www.garmin.com/xmlschemas/TrackPointExtensionv1.xsd http://www.garmin.com/xmlschemas/PowerExtension/v1 http://www.garmin.com/xmlschemas/PowerExtensionv1.xsd http://www.topografix.com/GPX/gpx_style/0/2 http://www.topografix.com/GPX/gpx_style/0/2/gpx_style.xsd" xmlns:gpxtpx="http://www.garmin.com/xmlschemas/TrackPointExtension/v1" xmlns:gpxx="http://www.garmin.com/xmlschemas/GpxExtensions/v3" xmlns:gpxpx="http://www.garmin.com/xmlschemas/PowerExtension/v1" xmlns:gpx_style="http://www.topografix.com/GPX/gpx_style/0/2">
  <metadata>
    <name>2026-05-12 ESAV Gravel Rallye 1</name>
    <author>
      <name>gpx.studio</name>
      <link href="https://gpx.studio"/>
    </author>
  </metadata>
  <trk>
    <name>2026-05-12 ESAV Gravel Rallye 1</name>
    <trkseg>
      <trkpt lat="51.124057" lon="5.362653"/>
      <trkpt lat="51.123986" lon="5.362581"/>
      <trkpt lat="51.123907" lon="5.362471"/>
      <trkpt lat="51.123935" lon="5.362707"/>
      <trkpt lat="51.124022" lon="5.363407"/>
      <trkpt lat="51.124166" lon="5.364355"/>
      <trkpt lat="51.124208" lon="5.364442"/>
      <trkpt lat="51.124245" lon="5.36445"/>
      <trkpt lat="51.124437" lon="5.364424"/>
      <trkpt lat="51.124496" lon="5.364465"/>
      <trkpt lat="51.124736" lon="5.365062"/>
      <trkpt lat="51.124796" lon="5.365425"/>
      <trkpt lat="51.124893" lon="5.365406"/>
      <trkpt lat="51.125122" lon="5.365279"/>
      <trkpt lat="51.125191" lon="5.365278"/>
      <trkpt lat="51.125331" lon="5.365348"/>
      <trkpt lat="51.125331" lon="5.365348"/>
      <trkpt lat="51.125336" lon="5.365351"/>
      <trkpt lat="51.125234" lon="5.365764"/>
      <trkpt lat="51.125208" lon="5.365977"/>
      <trkpt lat="51.125141" lon="5.366287"/>
      <trkpt lat="51.125115" lon="5.366447"/>
      <trkpt lat="51.125053" lon="5.367092"/>
      <trkpt lat="51.125052" lon="5.367366"/>
      <trkpt lat="51.125036" lon="5.367512"/>
      <trkpt lat="51.125009" lon="5.367573"/>
      <trkpt lat="51.125001" lon="5.367672"/>
      <trkpt lat="51.125027" lon="5.367764"/>
      <trkpt lat="51.125054" lon="5.367801"/>
      <trkpt lat="51.125086" lon="5.367823"/>
      <trkpt lat="51.125114" lon="5.36804"/>
      <trkpt lat="51.125126" lon="5.368154"/>
      <trkpt lat="51.125135" lon="5.368393"/>
      <trkpt lat="51.125226" lon="5.369352"/>
      <trkpt lat="51.125313" lon="5.369681"/>
      <trkpt lat="51.125322" lon="5.369792"/>
      <trkpt lat="51.125404" lon="5.370557"/>
      <trkpt lat="51.126657" lon="5.383768"/>
      <trkpt lat="51.126661" lon="5.384169"/>
      <trkpt lat="51.126698" lon="5.384727"/>
      <trkpt lat="51.126817" lon="5.385859"/>
      <trkpt lat="51.126851" lon="5.386412"/>
      <trkpt lat="51.126879" lon="5.386589"/>
      <trkpt lat="51.126968" lon="5.38702"/>
      <trkpt lat="51.127501" lon="5.392641"/>
      <trkpt lat="51.127493" lon="5.392641"/>
      <trkpt lat="51.127501" lon="5.392641"/>
      <trkpt lat="51.129781" lon="5.392265"/>
      <trkpt lat="51.129882" lon="5.392219"/>
      <trkpt lat="51.131335" lon="5.391395"/>
      <trkpt lat="51.131532" lon="5.391229"/>
      <trkpt lat="51.133531" lon="5.389422"/>
      <trkpt lat="51.133624" lon="5.389355"/>
      <trkpt lat="51.133734" lon="5.389327"/>
      <trkpt lat="51.133829" lon="5.389348"/>
      <trkpt lat="51.134605" lon="5.389842"/>
      <trkpt lat="51.135179" lon="5.390258"/>
      <trkpt lat="51.136188" lon="5.391104"/>
      <trkpt lat="51.136838" lon="5.391738"/>
      <trkpt lat="51.13779" lon="5.392729"/>
      <trkpt lat="51.137906" lon="5.392878"/>
      <trkpt lat="51.137947" lon="5.393007"/>
      <trkpt lat="51.137977" lon="5.3933"/>
      <trkpt lat="51.138004" lon="5.393406"/>
      <trkpt lat="51.138079" lon="5.393511"/>
      <trkpt lat="51.138102" lon="5.393449"/>
      <trkpt lat="51.138107" lon="5.393436"/>
      <trkpt lat="51.138552" lon="5.393761"/>
      <trkpt lat="51.138738" lon="5.393966"/>
      <trkpt lat="51.138968" lon="5.394244"/>
      <trkpt lat="51.139904" lon="5.395508"/>
      <trkpt lat="51.140384" lon="5.39621"/>
      <trkpt lat="51.141133" lon="5.397428"/>
      <trkpt lat="51.141439" lon="5.397977"/>
      <trkpt lat="51.141683" lon="5.398452"/>
      <trkpt lat="51.141779" lon="5.3987"/>
      <trkpt lat="51.14236" lon="5.40099"/>
      <trkpt lat="51.142459" lon="5.401329"/>
      <trkpt lat="51.142576" lon="5.401655"/>
      <trkpt lat="51.142715" lon="5.401987"/>
      <trkpt lat="51.143239" lon="5.403101"/>
      <trkpt lat="51.14465" lon="5.406009"/>
      <trkpt lat="51.144808" lon="5.406237"/>
      <trkpt lat="51.145064" lon="5.406556"/>
      <trkpt lat="51.145349" lon="5.406845"/>
      <trkpt lat="51.145682" lon="5.407137"/>
      <trkpt lat="51.145953" lon="5.407353"/>
      <trkpt lat="51.146164" lon="5.407474"/>
      <trkpt lat="51.146673" lon="5.407708"/>
      <trkpt lat="51.148391" lon="5.408441"/>
      <trkpt lat="51.149391" lon="5.408872"/>
      <trkpt lat="51.149504" lon="5.40894"/>
      <trkpt lat="51.149596" lon="5.409068"/>
      <trkpt lat="51.149668" lon="5.409187"/>
      <trkpt lat="51.14995" lon="5.409731"/>
      <trkpt lat="51.150056" lon="5.409992"/>
      <trkpt lat="51.150109" lon="5.410175"/>
      <trkpt lat="51.150282" lon="5.410425"/>
      <trkpt lat="51.15036" lon="5.410534"/>
      <trkpt lat="51.150713" lon="5.411192"/>
      <trkpt lat="51.150911" lon="5.411437"/>
      <trkpt lat="51.151659" lon="5.412074"/>
      <trkpt lat="51.151844" lon="5.412189"/>
      <trkpt lat="51.152399" lon="5.41244"/>
      <trkpt lat="51.152571" lon="5.412509"/>
      <trkpt lat="51.15297" lon="5.412618"/>
      <trkpt lat="51.153264" lon="5.412675"/>
      <trkpt lat="51.153358" lon="5.412603"/>
      <trkpt lat="51.153431" lon="5.412697"/>
      <trkpt lat="51.153476" lon="5.412818"/>
      <trkpt lat="51.153553" lon="5.413403"/>
      <trkpt lat="51.153822" lon="5.415447"/>
      <trkpt lat="51.153911" lon="5.415816"/>
      <trkpt lat="51.153991" lon="5.416021"/>
      <trkpt lat="51.154099" lon="5.416301"/>
      <trkpt lat="51.154777" lon="5.418067"/>
      <trkpt lat="51.155364" lon="5.419559"/>
      <trkpt lat="51.155571" lon="5.419863"/>
      <trkpt lat="51.156043" lon="5.420435"/>
      <trkpt lat="51.156171" lon="5.420564"/>
      <trkpt lat="51.156496" lon="5.420792"/>
      <trkpt lat="51.156621" lon="5.420916"/>
      <trkpt lat="51.1567" lon="5.421041"/>
      <trkpt lat="51.156811" lon="5.42133"/>
      <trkpt lat="51.156968" lon="5.4218"/>
      <trkpt lat="51.157098" lon="5.422133"/>
      <trkpt lat="51.15724" lon="5.422398"/>
      <trkpt lat="51.157802" lon="5.423162"/>
      <trkpt lat="51.158061" lon="5.423537"/>
      <trkpt lat="51.158149" lon="5.423724"/>
      <trkpt lat="51.158537" lon="5.424753"/>
      <trkpt lat="51.158773" lon="5.425413"/>
      <trkpt lat="51.158814" lon="5.425498"/>
      <trkpt lat="51.158871" lon="5.425559"/>
      <trkpt lat="51.158963" lon="5.425591"/>
      <trkpt lat="51.159196" lon="5.425646"/>
      <trkpt lat="51.15936" lon="5.425766"/>
      <trkpt lat="51.15932" lon="5.425532"/>
      <trkpt lat="51.15932" lon="5.425532"/>
      <trkpt lat="51.15936" lon="5.425766"/>
      <trkpt lat="51.15946" lon="5.425841"/>
      <trkpt lat="51.159586" lon="5.425838"/>
      <trkpt lat="51.159693" lon="5.425796"/>
      <trkpt lat="51.159795" lon="5.425716"/>
      <trkpt lat="51.160058" lon="5.425388"/>
      <trkpt lat="51.16017" lon="5.425269"/>
      <trkpt lat="51.160273" lon="5.425232"/>
      <trkpt lat="51.16075" lon="5.425198"/>
      <trkpt lat="51.161226" lon="5.425165"/>
      <trkpt lat="51.161344" lon="5.425179"/>
      <trkpt lat="51.162455" lon="5.425976"/>
      <trkpt lat="51.162529" lon="5.426019"/>
      <trkpt lat="51.162617" lon="5.42605"/>
      <trkpt lat="51.162703" lon="5.426046"/>
      <trkpt lat="51.162775" lon="5.426018"/>
      <trkpt lat="51.163067" lon="5.425825"/>
      <trkpt lat="51.163143" lon="5.425817"/>
      <trkpt lat="51.163218" lon="5.425847"/>
      <trkpt lat="51.163284" lon="5.425898"/>
      <trkpt lat="51.163385" lon="5.426064"/>
      <trkpt lat="51.163492" lon="5.426271"/>
      <trkpt lat="51.163877" lon="5.427093"/>
      <trkpt lat="51.164266" lon="5.427959"/>
      <trkpt lat="51.164981" lon="5.429505"/>
      <trkpt lat="51.16506" lon="5.42964"/>
      <trkpt lat="51.165097" lon="5.429683"/>
      <trkpt lat="51.165152" lon="5.429672"/>
      <trkpt lat="51.165261" lon="5.429622"/>
      <trkpt lat="51.169" lon="5.427608"/>
      <trkpt lat="51.169094" lon="5.427808"/>
      <trkpt lat="51.169094" lon="5.427808"/>
      <trkpt lat="51.171761" lon="5.433525"/>
      <trkpt lat="51.171761" lon="5.433525"/>
      <trkpt lat="51.172017776371504" lon="5.434113745902688"/>
      <trkpt lat="51.17227455274302" lon="5.434702491805377"/>
      <trkpt lat="51.17230201156903" lon="5.434765450368161"/>
      <trkpt lat="51.17230201156903" lon="5.434765450368161"/>
      <trkpt lat="51.17241112730608" lon="5.435053244742846"/>
      <trkpt lat="51.17245605723346" lon="5.435209363397519"/>
      <trkpt lat="51.17245605723346" lon="5.435209363397519"/>
      <trkpt lat="51.17245605723346" lon="5.435209363397519"/>
      <trkpt lat="51.17248654538025" lon="5.435362922712358"/>
      <trkpt lat="51.172505801035015" lon="5.435511363401048"/>
      <trkpt lat="51.172505801035015" lon="5.435511363401048"/>
      <trkpt lat="51.172515428861175" lon="5.435708431199174"/>
      <trkpt lat="51.172515428861175" lon="5.435708431199174"/>
      <trkpt lat="51.17250098712529" lon="5.435974600683579"/>
      <trkpt lat="51.172454452593826" lon="5.436330346459272"/>
      <trkpt lat="51.172454452593826" lon="5.436330346459272"/>
      <trkpt lat="51.172370221326716" lon="5.437034836289509"/>
      <trkpt lat="51.17232287195182" lon="5.437430854944182"/>
      <trkpt lat="51.172315" lon="5.437463"/>
      <trkpt lat="51.17219" lon="5.438468"/>
      <trkpt lat="51.171944" lon="5.440458"/>
      <trkpt lat="51.171899" lon="5.440953"/>
      <trkpt lat="51.171897" lon="5.44109"/>
      <trkpt lat="51.171918" lon="5.441521"/>
      <trkpt lat="51.172012" lon="5.443149"/>
      <trkpt lat="51.172009" lon="5.443384"/>
      <trkpt lat="51.171991" lon="5.443606"/>
      <trkpt lat="51.171947" lon="5.44386"/>
      <trkpt lat="51.171172" lon="5.447143"/>
      <trkpt lat="51.171079" lon="5.447673"/>
      <trkpt lat="51.171022" lon="5.44827"/>
      <trkpt lat="51.171011" lon="5.448681"/>
      <trkpt lat="51.171013" lon="5.448923"/>
      <trkpt lat="51.171044" lon="5.449641"/>
      <trkpt lat="51.171017" lon="5.450057"/>
      <trkpt lat="51.170998" lon="5.45022"/>
      <trkpt lat="51.170956" lon="5.450276"/>
      <trkpt lat="51.170928" lon="5.450351"/>
      <trkpt lat="51.170917" lon="5.450421"/>
      <trkpt lat="51.170918" lon="5.450494"/>
      <trkpt lat="51.170932" lon="5.450563"/>
      <trkpt lat="51.170957" lon="5.450624"/>
      <trkpt lat="51.170992" lon="5.450672"/>
      <trkpt lat="51.171033" lon="5.450703"/>
      <trkpt lat="51.171078" lon="5.450715"/>
      <trkpt lat="51.171124" lon="5.450707"/>
      <trkpt lat="51.171166" lon="5.45068"/>
      <trkpt lat="51.171208" lon="5.450625"/>
      <trkpt lat="51.171237" lon="5.450551"/>
      <trkpt lat="51.17125" lon="5.450465"/>
      <trkpt lat="51.17134" lon="5.450436"/>
      <trkpt lat="51.171572" lon="5.450391"/>
      <trkpt lat="51.172207" lon="5.450271"/>
      <trkpt lat="51.172302" lon="5.450244"/>
      <trkpt lat="51.172778" lon="5.45027"/>
      <trkpt lat="51.172879" lon="5.45029"/>
      <trkpt lat="51.173294" lon="5.450426"/>
      <trkpt lat="51.173569" lon="5.450579"/>
      <trkpt lat="51.173848" lon="5.450751"/>
      <trkpt lat="51.17398" lon="5.4508"/>
      <trkpt lat="51.176377" lon="5.452211"/>
      <trkpt lat="51.176408" lon="5.452021"/>
      <trkpt lat="51.176445" lon="5.4518"/>
      <trkpt lat="51.177002" lon="5.449723"/>
      <trkpt lat="51.177152" lon="5.449198"/>
      <trkpt lat="51.177263" lon="5.448818"/>
      <trkpt lat="51.177601" lon="5.447853"/>
      <trkpt lat="51.177868" lon="5.44719"/>
      <trkpt lat="51.178067" lon="5.446737"/>
      <trkpt lat="51.179695" lon="5.443411"/>
      <trkpt lat="51.179836" lon="5.443092"/>
      <trkpt lat="51.179964" lon="5.442774"/>
      <trkpt lat="51.180095" lon="5.442408"/>
      <trkpt lat="51.180213" lon="5.442036"/>
      <trkpt lat="51.180322" lon="5.441657"/>
      <trkpt lat="51.180422" lon="5.441238"/>
      <trkpt lat="51.180502" lon="5.440849"/>
      <trkpt lat="51.180588" lon="5.440349"/>
      <trkpt lat="51.180664" lon="5.439806"/>
      <trkpt lat="51.180754" lon="5.439289"/>
      <trkpt lat="51.180902" lon="5.439314"/>
      <trkpt lat="51.180902" lon="5.439314"/>
      <trkpt lat="51.180988" lon="5.439328"/>
      <trkpt lat="51.182305" lon="5.439375"/>
      <trkpt lat="51.182432" lon="5.439399"/>
      <trkpt lat="51.18259" lon="5.439509"/>
      <trkpt lat="51.182758" lon="5.439809"/>
      <trkpt lat="51.182775" lon="5.439845"/>
      <trkpt lat="51.182812" lon="5.439875"/>
      <trkpt lat="51.182873" lon="5.440018"/>
      <trkpt lat="51.183138" lon="5.440479"/>
      <trkpt lat="51.183881" lon="5.441829"/>
      <trkpt lat="51.184477" lon="5.442878"/>
      <trkpt lat="51.185836" lon="5.445364"/>
      <trkpt lat="51.186151" lon="5.445963"/>
      <trkpt lat="51.186192" lon="5.446093"/>
      <trkpt lat="51.186243" lon="5.446098"/>
      <trkpt lat="51.186243" lon="5.446098"/>
      <trkpt lat="51.187391" lon="5.446226"/>
      <trkpt lat="51.187591" lon="5.446215"/>
      <trkpt lat="51.187722" lon="5.446188"/>
      <trkpt lat="51.18788" lon="5.446138"/>
      <trkpt lat="51.189268" lon="5.445553"/>
      <trkpt lat="51.189483" lon="5.445449"/>
      <trkpt lat="51.18963" lon="5.445348"/>
      <trkpt lat="51.191592" lon="5.443634"/>
      <trkpt lat="51.191753" lon="5.443521"/>
      <trkpt lat="51.192663" lon="5.44295"/>
      <trkpt lat="51.192917" lon="5.442818"/>
      <trkpt lat="51.193163" lon="5.442714"/>
      <trkpt lat="51.193373" lon="5.442652"/>
      <trkpt lat="51.193602" lon="5.442607"/>
      <trkpt lat="51.193831" lon="5.442587"/>
      <trkpt lat="51.195644" lon="5.442507"/>
      <trkpt lat="51.195817" lon="5.442507"/>
      <trkpt lat="51.195993" lon="5.442523"/>
      <trkpt lat="51.196157" lon="5.442556"/>
      <trkpt lat="51.196344" lon="5.44261"/>
      <trkpt lat="51.197809" lon="5.443285"/>
      <trkpt lat="51.197955" lon="5.443335"/>
      <trkpt lat="51.198077" lon="5.443359"/>
      <trkpt lat="51.1982" lon="5.443362"/>
      <trkpt lat="51.198321" lon="5.44335"/>
      <trkpt lat="51.198417" lon="5.443326"/>
      <trkpt lat="51.198946" lon="5.443126"/>
      <trkpt lat="51.199231" lon="5.442996"/>
      <trkpt lat="51.199347" lon="5.442921"/>
      <trkpt lat="51.199473" lon="5.442823"/>
      <trkpt lat="51.200141" lon="5.442175"/>
      <trkpt lat="51.200388" lon="5.441988"/>
      <trkpt lat="51.200548" lon="5.441916"/>
      <trkpt lat="51.200824" lon="5.441874"/>
      <trkpt lat="51.20107" lon="5.441919"/>
      <trkpt lat="51.201435" lon="5.442146"/>
      <trkpt lat="51.201623" lon="5.44236"/>
      <trkpt lat="51.201755" lon="5.442563"/>
      <trkpt lat="51.201931" lon="5.442907"/>
      <trkpt lat="51.202069" lon="5.44325"/>
      <trkpt lat="51.202031" lon="5.443318"/>
      <trkpt lat="51.202024" lon="5.443409"/>
      <trkpt lat="51.202051" lon="5.44349"/>
      <trkpt lat="51.202102" lon="5.443532"/>
      <trkpt lat="51.202103" lon="5.443651"/>
      <trkpt lat="51.202103" lon="5.443651"/>
      <trkpt lat="51.202105" lon="5.443814"/>
      <trkpt lat="51.202201" lon="5.44437"/>
      <trkpt lat="51.202223" lon="5.444603"/>
      <trkpt lat="51.202226" lon="5.44486"/>
      <trkpt lat="51.202212" lon="5.445524"/>
      <trkpt lat="51.202224" lon="5.445875"/>
      <trkpt lat="51.202262" lon="5.446317"/>
      <trkpt lat="51.202402" lon="5.447663"/>
      <trkpt lat="51.202435" lon="5.447861"/>
      <trkpt lat="51.202775" lon="5.449597"/>
      <trkpt lat="51.202797" lon="5.44979"/>
      <trkpt lat="51.20279" lon="5.449953"/>
      <trkpt lat="51.202761" lon="5.450114"/>
      <trkpt lat="51.202762" lon="5.450111"/>
      <trkpt lat="51.202859" lon="5.450177"/>
      <trkpt lat="51.202893" lon="5.450232"/>
      <trkpt lat="51.202932" lon="5.450362"/>
      <trkpt lat="51.202957" lon="5.450509"/>
      <trkpt lat="51.202961" lon="5.450583"/>
      <trkpt lat="51.203037" lon="5.45069"/>
      <trkpt lat="51.203142" lon="5.450952"/>
      <trkpt lat="51.20339" lon="5.451455"/>
      <trkpt lat="51.203458" lon="5.451693"/>
      <trkpt lat="51.203516" lon="5.452169"/>
      <trkpt lat="51.203705" lon="5.452839"/>
      <trkpt lat="51.204025" lon="5.454095"/>
      <trkpt lat="51.204068" lon="5.454324"/>
      <trkpt lat="51.204084" lon="5.454541"/>
      <trkpt lat="51.20408" lon="5.454822"/>
      <trkpt lat="51.204048" lon="5.45544"/>
      <trkpt lat="51.204073" lon="5.455721"/>
      <trkpt lat="51.204163" lon="5.456456"/>
      <trkpt lat="51.204186" lon="5.456533"/>
      <trkpt lat="51.204341" lon="5.45723"/>
      <trkpt lat="51.204341" lon="5.45723"/>
      <trkpt lat="51.204342" lon="5.457234"/>
      <trkpt lat="51.205666" lon="5.463066"/>
      <trkpt lat="51.205712" lon="5.46336"/>
      <trkpt lat="51.205738" lon="5.463453"/>
      <trkpt lat="51.20584" lon="5.463594"/>
      <trkpt lat="51.206173" lon="5.463918"/>
      <trkpt lat="51.206202" lon="5.463985"/>
      <trkpt lat="51.206205" lon="5.464076"/>
      <trkpt lat="51.206095" lon="5.464915"/>
      <trkpt lat="51.206098" lon="5.465036"/>
      <trkpt lat="51.206125" lon="5.465105"/>
      <trkpt lat="51.207067" lon="5.466206"/>
      <trkpt lat="51.20808" lon="5.467355"/>
      <trkpt lat="51.208118" lon="5.467396"/>
      <trkpt lat="51.20856" lon="5.466362"/>
      <trkpt lat="51.209782" lon="5.463591"/>
      <trkpt lat="51.209797" lon="5.463557"/>
      <trkpt lat="51.209857" lon="5.463571"/>
      <trkpt lat="51.210808" lon="5.463338"/>
      <trkpt lat="51.211583" lon="5.463165"/>
      <trkpt lat="51.211871" lon="5.463077"/>
      <trkpt lat="51.212462" lon="5.462924"/>
      <trkpt lat="51.213786" lon="5.462624"/>
      <trkpt lat="51.215475" lon="5.462212"/>
      <trkpt lat="51.217365" lon="5.461726"/>
      <trkpt lat="51.217396" lon="5.461701"/>
      <trkpt lat="51.21784" lon="5.463125"/>
      <trkpt lat="51.21801" lon="5.463549"/>
      <trkpt lat="51.218217" lon="5.464202"/>
      <trkpt lat="51.218902" lon="5.466475"/>
      <trkpt lat="51.218904" lon="5.466473"/>
      <trkpt lat="51.220933" lon="5.465233"/>
      <trkpt lat="51.221445" lon="5.464986"/>
      <trkpt lat="51.222826" lon="5.464504"/>
      <trkpt lat="51.223149" lon="5.464401"/>
      <trkpt lat="51.223375" lon="5.464378"/>
      <trkpt lat="51.224006" lon="5.4644"/>
      <trkpt lat="51.224286" lon="5.464373"/>
      <trkpt lat="51.224796" lon="5.464346"/>
      <trkpt lat="51.22494" lon="5.464386"/>
      <trkpt lat="51.225328" lon="5.464558"/>
      <trkpt lat="51.225458" lon="5.46465"/>
      <trkpt lat="51.225686" lon="5.464907"/>
      <trkpt lat="51.225807" lon="5.465011"/>
      <trkpt lat="51.22814" lon="5.466282"/>
      <trkpt lat="51.228335" lon="5.466419"/>
      <trkpt lat="51.228494" lon="5.466601"/>
      <trkpt lat="51.228623" lon="5.466722"/>
      <trkpt lat="51.22874" lon="5.466779"/>
      <trkpt lat="51.228869" lon="5.466823"/>
      <trkpt lat="51.22908" lon="5.466824"/>
      <trkpt lat="51.229378" lon="5.466787"/>
      <trkpt lat="51.22985" lon="5.466703"/>
      <trkpt lat="51.229893" lon="5.466696"/>
      <trkpt lat="51.229886" lon="5.466856"/>
      <trkpt lat="51.229844" lon="5.467298"/>
      <trkpt lat="51.228478" lon="5.476332"/>
      <trkpt lat="51.22831" lon="5.477406"/>
      <trkpt lat="51.227434" lon="5.481279"/>
      <trkpt lat="51.227294" lon="5.481718"/>
      <trkpt lat="51.22726" lon="5.481844"/>
      <trkpt lat="51.227184" lon="5.481864"/>
      <trkpt lat="51.227158" lon="5.481899"/>
      <trkpt lat="51.227138" lon="5.481936"/>
      <trkpt lat="51.227124" lon="5.481987"/>
      <trkpt lat="51.22712" lon="5.482038"/>
      <trkpt lat="51.227127" lon="5.482093"/>
      <trkpt lat="51.227144" lon="5.48214"/>
      <trkpt lat="51.22717" lon="5.482177"/>
      <trkpt lat="51.227204" lon="5.4822"/>
      <trkpt lat="51.227261" lon="5.482204"/>
      <trkpt lat="51.227295" lon="5.482188"/>
      <trkpt lat="51.227409" lon="5.482303"/>
      <trkpt lat="51.227568" lon="5.482485"/>
      <trkpt lat="51.22772" lon="5.482628"/>
      <trkpt lat="51.227974" lon="5.482827"/>
      <trkpt lat="51.228116" lon="5.482913"/>
      <trkpt lat="51.22862" lon="5.483124"/>
      <trkpt lat="51.228818" lon="5.483153"/>
      <trkpt lat="51.229764" lon="5.483522"/>
      <trkpt lat="51.229937" lon="5.483639"/>
      <trkpt lat="51.230904" lon="5.484015"/>
      <trkpt lat="51.231051" lon="5.484063"/>
      <trkpt lat="51.231319" lon="5.484118"/>
      <trkpt lat="51.231486" lon="5.484118"/>
      <trkpt lat="51.231808" lon="5.484076"/>
      <trkpt lat="51.231997" lon="5.484012"/>
      <trkpt lat="51.232146" lon="5.483949"/>
      <trkpt lat="51.232431" lon="5.483767"/>
      <trkpt lat="51.232825" lon="5.483419"/>
      <trkpt lat="51.232755" lon="5.483251"/>
      <trkpt lat="51.232726" lon="5.483194"/>
      <trkpt lat="51.232655" lon="5.483134"/>
      <trkpt lat="51.231859" lon="5.483276"/>
      <trkpt lat="51.231245" lon="5.483142"/>
      <trkpt lat="51.230956" lon="5.483062"/>
      <trkpt lat="51.230518" lon="5.482842"/>
      <trkpt lat="51.230095" lon="5.482601"/>
      <trkpt lat="51.230105" lon="5.482543"/>
      <trkpt lat="51.230615" lon="5.47964"/>
      <trkpt lat="51.230667" lon="5.47948"/>
      <trkpt lat="51.230738" lon="5.47937"/>
      <trkpt lat="51.230817" lon="5.479308"/>
      <trkpt lat="51.230982" lon="5.479238"/>
      <trkpt lat="51.23103" lon="5.479186"/>
      <trkpt lat="51.231058" lon="5.479126"/>
      <trkpt lat="51.23109" lon="5.478989"/>
      <trkpt lat="51.231542" lon="5.476306"/>
      <trkpt lat="51.231554" lon="5.476073"/>
      <trkpt lat="51.231555" lon="5.475607"/>
      <trkpt lat="51.231573" lon="5.475329"/>
      <trkpt lat="51.231679" lon="5.473884"/>
      <trkpt lat="51.23168" lon="5.47353"/>
      <trkpt lat="51.231586" lon="5.473099"/>
      <trkpt lat="51.231571" lon="5.472929"/>
      <trkpt lat="51.23156" lon="5.472606"/>
      <trkpt lat="51.231587" lon="5.472246"/>
      <trkpt lat="51.232106" lon="5.470171"/>
      <trkpt lat="51.232142" lon="5.470112"/>
      <trkpt lat="51.232198" lon="5.47008"/>
      <trkpt lat="51.232278" lon="5.470085"/>
      <trkpt lat="51.232789" lon="5.470416"/>
      <trkpt lat="51.233282" lon="5.470821"/>
      <trkpt lat="51.233852" lon="5.471409"/>
      <trkpt lat="51.234809" lon="5.472114"/>
      <trkpt lat="51.235041" lon="5.472272"/>
      <trkpt lat="51.235238" lon="5.472353"/>
      <trkpt lat="51.237801" lon="5.472935"/>
      <trkpt lat="51.237805" lon="5.472936"/>
      <trkpt lat="51.238259" lon="5.470598"/>
      <trkpt lat="51.238313" lon="5.470404"/>
      <trkpt lat="51.238361" lon="5.470295"/>
      <trkpt lat="51.238436" lon="5.470198"/>
      <trkpt lat="51.238513" lon="5.470132"/>
      <trkpt lat="51.238608" lon="5.470109"/>
      <trkpt lat="51.239171" lon="5.470106"/>
      <trkpt lat="51.239259" lon="5.470059"/>
      <trkpt lat="51.23939" lon="5.469915"/>
      <trkpt lat="51.239541" lon="5.470295"/>
      <trkpt lat="51.239626" lon="5.470555"/>
      <trkpt lat="51.239728" lon="5.470488"/>
      <trkpt lat="51.240047" lon="5.470361"/>
      <trkpt lat="51.240188" lon="5.470345"/>
      <trkpt lat="51.240331" lon="5.470363"/>
      <trkpt lat="51.24045" lon="5.470412"/>
      <trkpt lat="51.241963" lon="5.471282"/>
      <trkpt lat="51.244599" lon="5.472822"/>
      <trkpt lat="51.244858" lon="5.472987"/>
      <trkpt lat="51.245098" lon="5.473195"/>
      <trkpt lat="51.247165" lon="5.475389"/>
      <trkpt lat="51.247629" lon="5.475866"/>
      <trkpt lat="51.248015" lon="5.476157"/>
      <trkpt lat="51.248799" lon="5.476637"/>
      <trkpt lat="51.24925" lon="5.476873"/>
      <trkpt lat="51.249462" lon="5.477019"/>
      <trkpt lat="51.249645" lon="5.477177"/>
      <trkpt lat="51.250081" lon="5.477588"/>
      <trkpt lat="51.250317" lon="5.477827"/>
      <trkpt lat="51.250587" lon="5.478079"/>
      <trkpt lat="51.250864" lon="5.478376"/>
      <trkpt lat="51.251038" lon="5.478621"/>
      <trkpt lat="51.251189" lon="5.478919"/>
      <trkpt lat="51.251366" lon="5.479194"/>
      <trkpt lat="51.251385" lon="5.479242"/>
      <trkpt lat="51.251401" lon="5.479327"/>
      <trkpt lat="51.25142" lon="5.479429"/>
      <trkpt lat="51.251433" lon="5.479583"/>
      <trkpt lat="51.251705" lon="5.479499"/>
      <trkpt lat="51.252413" lon="5.479591"/>
      <trkpt lat="51.252511" lon="5.479588"/>
      <trkpt lat="51.253005" lon="5.479529"/>
      <trkpt lat="51.253485" lon="5.479455"/>
      <trkpt lat="51.253567" lon="5.479465"/>
      <trkpt lat="51.253679" lon="5.479451"/>
      <trkpt lat="51.253783" lon="5.479381"/>
      <trkpt lat="51.254155" lon="5.479043"/>
      <trkpt lat="51.254236" lon="5.478959"/>
      <trkpt lat="51.254291" lon="5.478873"/>
      <trkpt lat="51.254244" lon="5.478771"/>
      <trkpt lat="51.254208" lon="5.478665"/>
      <trkpt lat="51.254191" lon="5.478472"/>
      <trkpt lat="51.25441" lon="5.477418"/>
      <trkpt lat="51.254602" lon="5.476267"/>
      <trkpt lat="51.254689" lon="5.47525"/>
      <trkpt lat="51.254703" lon="5.475012"/>
      <trkpt lat="51.25475" lon="5.475009"/>
      <trkpt lat="51.254792" lon="5.474977"/>
      <trkpt lat="51.254823" lon="5.474923"/>
      <trkpt lat="51.254839" lon="5.474853"/>
      <trkpt lat="51.254918" lon="5.474862"/>
      <trkpt lat="51.255236" lon="5.47486"/>
      <trkpt lat="51.255576" lon="5.474775"/>
      <trkpt lat="51.255958" lon="5.474579"/>
      <trkpt lat="51.256166" lon="5.474413"/>
      <trkpt lat="51.256347" lon="5.474219"/>
      <trkpt lat="51.256535" lon="5.473972"/>
      <trkpt lat="51.256669" lon="5.473761"/>
      <trkpt lat="51.256799" lon="5.473521"/>
      <trkpt lat="51.256986" lon="5.473092"/>
      <trkpt lat="51.257179" lon="5.472554"/>
      <trkpt lat="51.257361" lon="5.472014"/>
      <trkpt lat="51.257765" lon="5.470912"/>
      <trkpt lat="51.257942" lon="5.470601"/>
      <trkpt lat="51.25811" lon="5.470394"/>
      <trkpt lat="51.259702" lon="5.469122"/>
      <trkpt lat="51.259661" lon="5.468965"/>
      <trkpt lat="51.259645" lon="5.468892"/>
      <trkpt lat="51.259624" lon="5.466974"/>
      <trkpt lat="51.259665" lon="5.466695"/>
      <trkpt lat="51.259898" lon="5.466089"/>
      <trkpt lat="51.25998" lon="5.46577"/>
      <trkpt lat="51.260178" lon="5.464878"/>
      <trkpt lat="51.260261" lon="5.464577"/>
      <trkpt lat="51.260529" lon="5.463694"/>
      <trkpt lat="51.260697" lon="5.463267"/>
      <trkpt lat="51.260798" lon="5.463055"/>
      <trkpt lat="51.260961" lon="5.462746"/>
      <trkpt lat="51.261201" lon="5.46234"/>
      <trkpt lat="51.261665" lon="5.461406"/>
      <trkpt lat="51.261876" lon="5.461078"/>
      <trkpt lat="51.262095" lon="5.460802"/>
      <trkpt lat="51.262429" lon="5.460564"/>
      <trkpt lat="51.263385" lon="5.46005"/>
      <trkpt lat="51.263661" lon="5.45985"/>
      <trkpt lat="51.263946" lon="5.45954"/>
      <trkpt lat="51.264503" lon="5.458605"/>
      <trkpt lat="51.264564" lon="5.458479"/>
      <trkpt lat="51.264596" lon="5.458336"/>
      <trkpt lat="51.264607" lon="5.458217"/>
      <trkpt lat="51.264513" lon="5.458077"/>
      <trkpt lat="51.264431" lon="5.457978"/>
      <trkpt lat="51.264262" lon="5.457725"/>
      <trkpt lat="51.264611" lon="5.45703"/>
      <trkpt lat="51.264852" lon="5.456617"/>
      <trkpt lat="51.265748" lon="5.455922"/>
      <trkpt lat="51.265834" lon="5.455873"/>
      <trkpt lat="51.265934" lon="5.455865"/>
      <trkpt lat="51.266412" lon="5.456"/>
      <trkpt lat="51.266493" lon="5.455939"/>
      <trkpt lat="51.266608" lon="5.455818"/>
      <trkpt lat="51.266767" lon="5.455625"/>
      <trkpt lat="51.266826" lon="5.455483"/>
      <trkpt lat="51.267391" lon="5.452974"/>
      <trkpt lat="51.267457" lon="5.452799"/>
      <trkpt lat="51.268242" lon="5.451529"/>
      <trkpt lat="51.268358" lon="5.451397"/>
      <trkpt lat="51.268405" lon="5.451252"/>
      <trkpt lat="51.270171" lon="5.448415"/>
      <trkpt lat="51.270239" lon="5.448251"/>
      <trkpt lat="51.270266" lon="5.448117"/>
      <trkpt lat="51.270498" lon="5.445419"/>
      <trkpt lat="51.270498" lon="5.44536"/>
      <trkpt lat="51.270497" lon="5.445314"/>
      <trkpt lat="51.270554" lon="5.445284"/>
      <trkpt lat="51.273925" lon="5.446023"/>
      <trkpt lat="51.273966" lon="5.446069"/>
      <trkpt lat="51.273981" lon="5.446086"/>
      <trkpt lat="51.273998" lon="5.446167"/>
      <trkpt lat="51.273906" lon="5.447196"/>
      <trkpt lat="51.273872" lon="5.4474"/>
      <trkpt lat="51.27388" lon="5.447461"/>
      <trkpt lat="51.273894" lon="5.447569"/>
      <trkpt lat="51.273957" lon="5.447616"/>
      <trkpt lat="51.275562" lon="5.447948"/>
      <trkpt lat="51.275573" lon="5.447819"/>
      <trkpt lat="51.275933" lon="5.443657"/>
      <trkpt lat="51.275941" lon="5.443559"/>
      <trkpt lat="51.279907" lon="5.444426"/>
      <trkpt lat="51.27989" lon="5.444634"/>
      <trkpt lat="51.27916" lon="5.453179"/>
      <trkpt lat="51.279269" lon="5.453203"/>
      <trkpt lat="51.283158" lon="5.454045"/>
      <trkpt lat="51.28329" lon="5.454061"/>
      <trkpt lat="51.283407" lon="5.454127"/>
      <trkpt lat="51.283407" lon="5.454127"/>
      <trkpt lat="51.283455" lon="5.454143"/>
      <trkpt lat="51.28344" lon="5.454003"/>
      <trkpt lat="51.290681" lon="5.454627"/>
      <trkpt lat="51.290654" lon="5.454236"/>
      <trkpt lat="51.290184" lon="5.447354"/>
      <trkpt lat="51.289968" lon="5.443561"/>
      <trkpt lat="51.28992" lon="5.44236"/>
      <trkpt lat="51.289952" lon="5.442019"/>
      <trkpt lat="51.290056" lon="5.441632"/>
      <trkpt lat="51.291133" lon="5.439444"/>
      <trkpt lat="51.291277" lon="5.439021"/>
      <trkpt lat="51.291464" lon="5.437764"/>
      <trkpt lat="51.29149" lon="5.43735"/>
      <trkpt lat="51.291494" lon="5.43606"/>
      <trkpt lat="51.291521" lon="5.435495"/>
      <trkpt lat="51.291815" lon="5.434098"/>
      <trkpt lat="51.291954" lon="5.433277"/>
      <trkpt lat="51.291996" lon="5.433128"/>
      <trkpt lat="51.29208" lon="5.43274"/>
      <trkpt lat="51.2922" lon="5.43211"/>
      <trkpt lat="51.29242" lon="5.43148"/>
      <trkpt lat="51.29281" lon="5.43014"/>
      <trkpt lat="51.29329" lon="5.42885"/>
      <trkpt lat="51.29332" lon="5.42867"/>
      <trkpt lat="51.29331" lon="5.42852"/>
      <trkpt lat="51.293068" lon="5.427503"/>
      <trkpt lat="51.293268" lon="5.427422"/>
      <trkpt lat="51.293268" lon="5.427422"/>
      <trkpt lat="51.294617" lon="5.426882"/>
      <trkpt lat="51.294756" lon="5.426904"/>
      <trkpt lat="51.294939" lon="5.427016"/>
      <trkpt lat="51.295757" lon="5.427619"/>
      <trkpt lat="51.295848" lon="5.427727"/>
      <trkpt lat="51.295814" lon="5.427505"/>
      <trkpt lat="51.295798" lon="5.42745"/>
      <trkpt lat="51.295798" lon="5.42745"/>
      <trkpt lat="51.29541" lon="5.42617"/>
      <trkpt lat="51.295309" lon="5.425744"/>
      <trkpt lat="51.295299" lon="5.425575"/>
      <trkpt lat="51.295299" lon="5.425034"/>
      <trkpt lat="51.295299" lon="5.424537"/>
      <trkpt lat="51.295287" lon="5.424241"/>
      <trkpt lat="51.295244" lon="5.423916"/>
      <trkpt lat="51.295105" lon="5.423261"/>
      <trkpt lat="51.294861" lon="5.42223"/>
      <trkpt lat="51.294861" lon="5.42223"/>
      <trkpt lat="51.294707" lon="5.421577"/>
      <trkpt lat="51.294495" lon="5.420528"/>
      <trkpt lat="51.293205" lon="5.415996"/>
      <trkpt lat="51.292743" lon="5.41435"/>
      <trkpt lat="51.292629" lon="5.413894"/>
      <trkpt lat="51.292629" lon="5.413894"/>
      <trkpt lat="51.292617" lon="5.413847"/>
      <trkpt lat="51.2925" lon="5.413624"/>
      <trkpt lat="51.292257" lon="5.413259"/>
      <trkpt lat="51.292105" lon="5.412959"/>
      <trkpt lat="51.292107" lon="5.4129"/>
      <trkpt lat="51.292146" lon="5.412765"/>
      <trkpt lat="51.292059" lon="5.412705"/>
      <trkpt lat="51.292172" lon="5.412287"/>
      <trkpt lat="51.293286" lon="5.408056"/>
      <trkpt lat="51.293327" lon="5.407968"/>
      <trkpt lat="51.292744" lon="5.401803"/>
      <trkpt lat="51.292732" lon="5.401667"/>
      <trkpt lat="51.28884" lon="5.402728"/>
      <trkpt lat="51.288822" lon="5.402733"/>
      <trkpt lat="51.28836" lon="5.398496"/>
      <trkpt lat="51.28845" lon="5.398483"/>
      <trkpt lat="51.288612" lon="5.398458"/>
      <trkpt lat="51.289739" lon="5.398147"/>
      <trkpt lat="51.291145" lon="5.397777"/>
      <trkpt lat="51.292533" lon="5.397372"/>
      <trkpt lat="51.295318" lon="5.396629"/>
      <trkpt lat="51.298613" lon="5.395724"/>
      <trkpt lat="51.300886" lon="5.395128"/>
      <trkpt lat="51.301775" lon="5.39546"/>
      <trkpt lat="51.304974" lon="5.396706"/>
      <trkpt lat="51.305347" lon="5.396876"/>
      <trkpt lat="51.30547" lon="5.39691"/>
      <trkpt lat="51.305479" lon="5.396866"/>
      <trkpt lat="51.305552" lon="5.39652"/>
      <trkpt lat="51.305628" lon="5.396267"/>
      <trkpt lat="51.305985" lon="5.395371"/>
      <trkpt lat="51.306257" lon="5.394617"/>
      <trkpt lat="51.306473" lon="5.394058"/>
      <trkpt lat="51.306649" lon="5.393757"/>
      <trkpt lat="51.306888" lon="5.393456"/>
      <trkpt lat="51.307116" lon="5.393253"/>
      <trkpt lat="51.30785" lon="5.39277"/>
      <trkpt lat="51.308025" lon="5.392616"/>
      <trkpt lat="51.308297" lon="5.392314"/>
      <trkpt lat="51.310309" lon="5.389952"/>
      <trkpt lat="51.310751" lon="5.389448"/>
      <trkpt lat="51.315793" lon="5.383573"/>
      <trkpt lat="51.315762" lon="5.383608"/>
      <trkpt lat="51.315052" lon="5.38251"/>
      <trkpt lat="51.31342" lon="5.379856"/>
      <trkpt lat="51.313499" lon="5.37972"/>
      <trkpt lat="51.31342" lon="5.379856"/>
      <trkpt lat="51.313392" lon="5.379819"/>
      <trkpt lat="51.314608" lon="5.377755"/>
      <trkpt lat="51.31481" lon="5.377448"/>
      <trkpt lat="51.315242" lon="5.377002"/>
      <trkpt lat="51.316045" lon="5.376343"/>
      <trkpt lat="51.316128" lon="5.376254"/>
      <trkpt lat="51.316411" lon="5.375888"/>
      <trkpt lat="51.316437" lon="5.375949"/>
      <trkpt lat="51.316353" lon="5.376045"/>
      <trkpt lat="51.316442" lon="5.375962"/>
      <trkpt lat="51.316209" lon="5.375456"/>
      <trkpt lat="51.316048" lon="5.37514"/>
      <trkpt lat="51.314865" lon="5.373499"/>
      <trkpt lat="51.31434" lon="5.3728"/>
      <trkpt lat="51.31402" lon="5.37208"/>
      <trkpt lat="51.312534" lon="5.368222"/>
      <trkpt lat="51.311783" lon="5.366299"/>
      <trkpt lat="51.311717" lon="5.366122"/>
      <trkpt lat="51.311687" lon="5.365988"/>
      <trkpt lat="51.311665" lon="5.365676"/>
      <trkpt lat="51.311646" lon="5.365567"/>
      <trkpt lat="51.31161" lon="5.36546"/>
      <trkpt lat="51.311453" lon="5.365114"/>
      <trkpt lat="51.311328" lon="5.365253"/>
      <trkpt lat="51.311257" lon="5.365334"/>
      <trkpt lat="51.3111" lon="5.36499"/>
      <trkpt lat="51.31102" lon="5.36489"/>
      <trkpt lat="51.31087" lon="5.36477"/>
      <trkpt lat="51.31035" lon="5.36451"/>
      <trkpt lat="51.30873" lon="5.36377"/>
      <trkpt lat="51.306806" lon="5.363044"/>
      <trkpt lat="51.306806" lon="5.363044"/>
      <trkpt lat="51.306806" lon="5.363044"/>
      <trkpt lat="51.306789" lon="5.363037"/>
      <trkpt lat="51.306843" lon="5.36281"/>
      <trkpt lat="51.307282" lon="5.361798"/>
      <trkpt lat="51.308168" lon="5.359673"/>
      <trkpt lat="51.308668" lon="5.35852"/>
      <trkpt lat="51.30913" lon="5.357521"/>
      <trkpt lat="51.309903" lon="5.355974"/>
      <trkpt lat="51.310564" lon="5.354583"/>
      <trkpt lat="51.310565" lon="5.354581"/>
      <trkpt lat="51.310684" lon="5.354369"/>
      <trkpt lat="51.311526" lon="5.353083"/>
      <trkpt lat="51.31208" lon="5.352378"/>
      <trkpt lat="51.312152" lon="5.3523"/>
      <trkpt lat="51.312194" lon="5.35227"/>
      <trkpt lat="51.312126" lon="5.351682"/>
      <trkpt lat="51.312093" lon="5.351324"/>
      <trkpt lat="51.31208" lon="5.351023"/>
      <trkpt lat="51.312082" lon="5.350778"/>
      <trkpt lat="51.312112" lon="5.350463"/>
      <trkpt lat="51.312136" lon="5.350286"/>
      <trkpt lat="51.312181" lon="5.350085"/>
      <trkpt lat="51.312437" lon="5.349229"/>
      <trkpt lat="51.312505" lon="5.348933"/>
      <trkpt lat="51.312532" lon="5.348616"/>
      <trkpt lat="51.312524" lon="5.347998"/>
      <trkpt lat="51.312528" lon="5.347118"/>
      <trkpt lat="51.312558" lon="5.346799"/>
      <trkpt lat="51.312598" lon="5.346514"/>
      <trkpt lat="51.312669" lon="5.346158"/>
      <trkpt lat="51.312802" lon="5.345614"/>
      <trkpt lat="51.312902" lon="5.345142"/>
      <trkpt lat="51.312944" lon="5.344894"/>
      <trkpt lat="51.312963" lon="5.344685"/>
      <trkpt lat="51.312961" lon="5.344406"/>
      <trkpt lat="51.312957" lon="5.343839"/>
      <trkpt lat="51.312979" lon="5.343702"/>
      <trkpt lat="51.312987" lon="5.343585"/>
      <trkpt lat="51.312984" lon="5.343494"/>
      <trkpt lat="51.313022" lon="5.343454"/>
      <trkpt lat="51.31305" lon="5.343399"/>
      <trkpt lat="51.313066" lon="5.343331"/>
      <trkpt lat="51.313057" lon="5.343189"/>
      <trkpt lat="51.31303" lon="5.343123"/>
      <trkpt lat="51.31299" lon="5.343076"/>
      <trkpt lat="51.312943" lon="5.343053"/>
      <trkpt lat="51.312894" lon="5.343057"/>
      <trkpt lat="51.312848" lon="5.343088"/>
      <trkpt lat="51.312811" lon="5.343141"/>
      <trkpt lat="51.312618" lon="5.343075"/>
      <trkpt lat="51.312555" lon="5.34298"/>
      <trkpt lat="51.312404" lon="5.342627"/>
      <trkpt lat="51.312335" lon="5.342503"/>
      <trkpt lat="51.31225" lon="5.34242"/>
      <trkpt lat="51.31215" lon="5.34236"/>
      <trkpt lat="51.31081" lon="5.34217"/>
      <trkpt lat="51.31069" lon="5.34211"/>
      <trkpt lat="51.31061" lon="5.342046"/>
      <trkpt lat="51.31054" lon="5.34197"/>
      <trkpt lat="51.310446" lon="5.341846"/>
      <trkpt lat="51.31036" lon="5.34169"/>
      <trkpt lat="51.309898" lon="5.340679"/>
      <trkpt lat="51.309661" lon="5.340128"/>
      <trkpt lat="51.309445" lon="5.339589"/>
      <trkpt lat="51.30914" lon="5.338735"/>
      <trkpt lat="51.308945" lon="5.338158"/>
      <trkpt lat="51.308865" lon="5.337897"/>
      <trkpt lat="51.308783" lon="5.337669"/>
      <trkpt lat="51.308662" lon="5.337425"/>
      <trkpt lat="51.308637" lon="5.33733"/>
      <trkpt lat="51.308593" lon="5.337268"/>
      <trkpt lat="51.308411" lon="5.337079"/>
      <trkpt lat="51.308329" lon="5.337039"/>
      <trkpt lat="51.308073" lon="5.336724"/>
      <trkpt lat="51.307482" lon="5.335966"/>
      <trkpt lat="51.307365" lon="5.335801"/>
      <trkpt lat="51.307331" lon="5.335712"/>
      <trkpt lat="51.307307" lon="5.33568"/>
      <trkpt lat="51.307217" lon="5.335606"/>
      <trkpt lat="51.306556" lon="5.334749"/>
      <trkpt lat="51.306511" lon="5.334615"/>
      <trkpt lat="51.306363" lon="5.334445"/>
      <trkpt lat="51.306112" lon="5.334297"/>
      <trkpt lat="51.305961" lon="5.334238"/>
      <trkpt lat="51.305844" lon="5.334222"/>
      <trkpt lat="51.305703" lon="5.334235"/>
      <trkpt lat="51.305386" lon="5.334297"/>
      <trkpt lat="51.305254" lon="5.334294"/>
      <trkpt lat="51.305087" lon="5.334255"/>
      <trkpt lat="51.304954" lon="5.334199"/>
      <trkpt lat="51.30468" lon="5.334002"/>
      <trkpt lat="51.30413" lon="5.33357"/>
      <trkpt lat="51.303569" lon="5.333166"/>
      <trkpt lat="51.301337" lon="5.331734"/>
      <trkpt lat="51.301067" lon="5.331609"/>
      <trkpt lat="51.30092" lon="5.33159"/>
      <trkpt lat="51.300739" lon="5.331604"/>
      <trkpt lat="51.300463" lon="5.331664"/>
      <trkpt lat="51.299294" lon="5.332023"/>
      <trkpt lat="51.299263" lon="5.331903"/>
      <trkpt lat="51.299263" lon="5.331903"/>
      <trkpt lat="51.297497" lon="5.326018"/>
      <trkpt lat="51.297283" lon="5.325193"/>
      <trkpt lat="51.297199" lon="5.324928"/>
      <trkpt lat="51.296999" lon="5.324455"/>
      <trkpt lat="51.296543" lon="5.323605"/>
      <trkpt lat="51.296334" lon="5.323157"/>
      <trkpt lat="51.29617" lon="5.32277"/>
      <trkpt lat="51.29481" lon="5.31898"/>
      <trkpt lat="51.294615" lon="5.318413"/>
      <trkpt lat="51.294531" lon="5.318138"/>
      <trkpt lat="51.294461" lon="5.317801"/>
      <trkpt lat="51.29419" lon="5.31599"/>
      <trkpt lat="51.294192" lon="5.314611"/>
      <trkpt lat="51.294117" lon="5.3142"/>
      <trkpt lat="51.294021" lon="5.313808"/>
      <trkpt lat="51.293931" lon="5.313833"/>
      <trkpt lat="51.293931" lon="5.313833"/>
      <trkpt lat="51.293841" lon="5.313859"/>
      <trkpt lat="51.293406" lon="5.314302"/>
      <trkpt lat="51.292102" lon="5.315532"/>
      <trkpt lat="51.291855" lon="5.315833"/>
      <trkpt lat="51.291662" lon="5.316133"/>
      <trkpt lat="51.291462" lon="5.316472"/>
      <trkpt lat="51.291301" lon="5.316801"/>
      <trkpt lat="51.290478" lon="5.318806"/>
      <trkpt lat="51.290343" lon="5.319093"/>
      <trkpt lat="51.290303" lon="5.31915"/>
      <trkpt lat="51.290203" lon="5.319213"/>
      <trkpt lat="51.290136" lon="5.319236"/>
      <trkpt lat="51.2901" lon="5.319281"/>
      <trkpt lat="51.289785" lon="5.31984"/>
      <trkpt lat="51.289762" lon="5.319944"/>
      <trkpt lat="51.289646" lon="5.319896"/>
      <trkpt lat="51.289589" lon="5.319841"/>
      <trkpt lat="51.289525" lon="5.31974"/>
      <trkpt lat="51.289166" lon="5.3192"/>
      <trkpt lat="51.289128" lon="5.319118"/>
      <trkpt lat="51.28905" lon="5.319002"/>
      <trkpt lat="51.288233" lon="5.317816"/>
      <trkpt lat="51.28777" lon="5.316846"/>
      <trkpt lat="51.287641" lon="5.316546"/>
      <trkpt lat="51.28697" lon="5.314842"/>
      <trkpt lat="51.286905" lon="5.314761"/>
      <trkpt lat="51.2868" lon="5.31469"/>
      <trkpt lat="51.286747" lon="5.314684"/>
      <trkpt lat="51.286616" lon="5.314683"/>
      <trkpt lat="51.28624" lon="5.31481"/>
      <trkpt lat="51.285369" lon="5.315025"/>
      <trkpt lat="51.285183" lon="5.31509"/>
      <trkpt lat="51.285033" lon="5.315177"/>
      <trkpt lat="51.284888" lon="5.315319"/>
      <trkpt lat="51.284867" lon="5.315352"/>
      <trkpt lat="51.28483" lon="5.315289"/>
      <trkpt lat="51.28472" lon="5.315119"/>
      <trkpt lat="51.284564" lon="5.314949"/>
      <trkpt lat="51.284073" lon="5.314477"/>
      <trkpt lat="51.283828" lon="5.314194"/>
      <trkpt lat="51.283325" lon="5.313536"/>
      <trkpt lat="51.283264" lon="5.313478"/>
      <trkpt lat="51.283208" lon="5.313469"/>
      <trkpt lat="51.283174" lon="5.313314"/>
      <trkpt lat="51.283174" lon="5.313314"/>
      <trkpt lat="51.28301" lon="5.313007"/>
      <trkpt lat="51.282904" lon="5.312772"/>
      <trkpt lat="51.282825" lon="5.312559"/>
      <trkpt lat="51.282742" lon="5.312246"/>
      <trkpt lat="51.282633" lon="5.311731"/>
      <trkpt lat="51.282475" lon="5.31057"/>
      <trkpt lat="51.282498" lon="5.308859"/>
      <trkpt lat="51.282494" lon="5.308616"/>
      <trkpt lat="51.282471" lon="5.308253"/>
      <trkpt lat="51.282363" lon="5.307541"/>
      <trkpt lat="51.281848" lon="5.30513"/>
      <trkpt lat="51.281265" lon="5.302277"/>
      <trkpt lat="51.28116" lon="5.30168"/>
      <trkpt lat="51.280948" lon="5.300582"/>
      <trkpt lat="51.280902" lon="5.299786"/>
      <trkpt lat="51.28075" lon="5.295689"/>
      <trkpt lat="51.28035" lon="5.28998"/>
      <trkpt lat="51.28035" lon="5.28955"/>
      <trkpt lat="51.280373" lon="5.289314"/>
      <trkpt lat="51.280854" lon="5.286097"/>
      <trkpt lat="51.281207" lon="5.283532"/>
      <trkpt lat="51.281195" lon="5.283267"/>
      <trkpt lat="51.28118" lon="5.283133"/>
      <trkpt lat="51.280958" lon="5.282066"/>
      <trkpt lat="51.28077" lon="5.281023"/>
      <trkpt lat="51.280713" lon="5.280309"/>
      <trkpt lat="51.2807" lon="5.279377"/>
      <trkpt lat="51.280743" lon="5.278662"/>
      <trkpt lat="51.28083" lon="5.277885"/>
      <trkpt lat="51.280923" lon="5.27742"/>
      <trkpt lat="51.281069" lon="5.276864"/>
      <trkpt lat="51.281226" lon="5.276403"/>
      <trkpt lat="51.2815" lon="5.275698"/>
      <trkpt lat="51.281851" lon="5.274986"/>
      <trkpt lat="51.282623" lon="5.273244"/>
      <trkpt lat="51.283259" lon="5.271626"/>
      <trkpt lat="51.283778" lon="5.270082"/>
      <trkpt lat="51.284011" lon="5.269296"/>
      <trkpt lat="51.284121" lon="5.268895"/>
      <trkpt lat="51.284191" lon="5.2684"/>
      <trkpt lat="51.284221" lon="5.268004"/>
      <trkpt lat="51.28424" lon="5.26747"/>
      <trkpt lat="51.28419" lon="5.26692"/>
      <trkpt lat="51.28411" lon="5.26646"/>
      <trkpt lat="51.28394" lon="5.265679"/>
      <trkpt lat="51.28369" lon="5.26468"/>
      <trkpt lat="51.28338" lon="5.26361"/>
      <trkpt lat="51.283003" lon="5.262519"/>
      <trkpt lat="51.282447" lon="5.261094"/>
      <trkpt lat="51.282314" lon="5.260773"/>
      <trkpt lat="51.282371" lon="5.260695"/>
      <trkpt lat="51.28297" lon="5.25989"/>
      <trkpt lat="51.28347" lon="5.25909"/>
      <trkpt lat="51.28393" lon="5.25824"/>
      <trkpt lat="51.28513" lon="5.25564"/>
      <trkpt lat="51.2858" lon="5.25438"/>
      <trkpt lat="51.28649" lon="5.25322"/>
      <trkpt lat="51.28691" lon="5.25263"/>
      <trkpt lat="51.28731" lon="5.25223"/>
      <trkpt lat="51.28761" lon="5.25198"/>
      <trkpt lat="51.28787" lon="5.25181"/>
      <trkpt lat="51.28837" lon="5.25159"/>
      <trkpt lat="51.28891" lon="5.25148"/>
      <trkpt lat="51.28979" lon="5.25144"/>
      <trkpt lat="51.29257" lon="5.2512"/>
      <trkpt lat="51.292564" lon="5.250967"/>
      <trkpt lat="51.292234" lon="5.238065"/>
      <trkpt lat="51.29223" lon="5.237942"/>
      <trkpt lat="51.292201" lon="5.236883"/>
      <trkpt lat="51.29217" lon="5.236801"/>
      <trkpt lat="51.292343" lon="5.236873"/>
      <trkpt lat="51.292343" lon="5.236873"/>
      <trkpt lat="51.29217" lon="5.236801"/>
      <trkpt lat="51.292201" lon="5.236883"/>
      <trkpt lat="51.29223" lon="5.237942"/>
      <trkpt lat="51.292308" lon="5.237967"/>
      <trkpt lat="51.292378" lon="5.238021"/>
      <trkpt lat="51.292471" lon="5.23812"/>
      <trkpt lat="51.295448" lon="5.239479"/>
      <trkpt lat="51.296055" lon="5.239828"/>
      <trkpt lat="51.296807" lon="5.240113"/>
      <trkpt lat="51.297171" lon="5.24017"/>
      <trkpt lat="51.29735" lon="5.240209"/>
      <trkpt lat="51.297554" lon="5.240211"/>
      <trkpt lat="51.297643" lon="5.240189"/>
      <trkpt lat="51.298012" lon="5.240024"/>
      <trkpt lat="51.298138" lon="5.239998"/>
      <trkpt lat="51.298258" lon="5.23999"/>
      <trkpt lat="51.298399" lon="5.239947"/>
      <trkpt lat="51.298632" lon="5.23997"/>
      <trkpt lat="51.298662" lon="5.239965"/>
      <trkpt lat="51.298889" lon="5.239862"/>
      <trkpt lat="51.298976" lon="5.239858"/>
      <trkpt lat="51.299111" lon="5.239923"/>
      <trkpt lat="51.29947" lon="5.240062"/>
      <trkpt lat="51.299699" lon="5.240168"/>
      <trkpt lat="51.300136" lon="5.240338"/>
      <trkpt lat="51.300777" lon="5.240648"/>
      <trkpt lat="51.300945" lon="5.240692"/>
      <trkpt lat="51.301138" lon="5.24079"/>
      <trkpt lat="51.301293" lon="5.240842"/>
      <trkpt lat="51.30157" lon="5.240958"/>
      <trkpt lat="51.301712" lon="5.241044"/>
      <trkpt lat="51.302675" lon="5.241356"/>
      <trkpt lat="51.303102" lon="5.241569"/>
      <trkpt lat="51.303472" lon="5.241732"/>
      <trkpt lat="51.303587" lon="5.241756"/>
      <trkpt lat="51.303634" lon="5.24175"/>
      <trkpt lat="51.303722" lon="5.241685"/>
      <trkpt lat="51.303744" lon="5.241634"/>
      <trkpt lat="51.305123" lon="5.2422"/>
      <trkpt lat="51.305227" lon="5.242211"/>
      <trkpt lat="51.305364" lon="5.24217"/>
      <trkpt lat="51.305281" lon="5.241893"/>
      <trkpt lat="51.305414" lon="5.241632"/>
      <trkpt lat="51.305707" lon="5.241389"/>
    </trkseg>
  </trk>
</gpx>
