<?xml version="1.0" encoding="UTF-8"?>
<gpx creator="https://gpx.studio" version="1.1" xmlns="http://www.topografix.com/GPX/1/1" xmlns:xsi="http://www.w3.org/2001/XMLSchema-instance" xsi:schemaLocation="http://www.topografix.com/GPX/1/1 http://www.topografix.com/GPX/1/1/gpx.xsd http://www.garmin.com/xmlschemas/GpxExtensions/v3 http://www.garmin.com/xmlschemas/GpxExtensionsv3.xsd http://www.garmin.com/xmlschemas/TrackPointExtension/v1 http://www.garmin.com/xmlschemas/TrackPointExtensionv1.xsd http://www.garmin.com/xmlschemas/PowerExtension/v1 http://www.garmin.com/xmlschemas/PowerExtensionv1.xsd http://www.topografix.com/GPX/gpx_style/0/2 http://www.topografix.com/GPX/gpx_style/0/2/gpx_style.xsd" xmlns:gpxtpx="http://www.garmin.com/xmlschemas/TrackPointExtension/v1" xmlns:gpxx="http://www.garmin.com/xmlschemas/GpxExtensions/v3" xmlns:gpxpx="http://www.garmin.com/xmlschemas/PowerExtension/v1" xmlns:gpx_style="http://www.topografix.com/GPX/gpx_style/0/2">
  <metadata>
    <name>2026-05-12 ESAV Gravel Rallye 2</name>
    <author>
      <name>gpx.studio</name>
      <link href="https://gpx.studio"/>
    </author>
  </metadata>
  <trk>
    <name>2026-05-12 ESAV Gravel Rallye 2</name>
    <trkseg>
      <trkpt lat="51.305707" lon="5.241389"/>
      <trkpt lat="51.305707" lon="5.241389"/>
      <trkpt lat="51.305414" lon="5.241632"/>
      <trkpt lat="51.305281" lon="5.241893"/>
      <trkpt lat="51.305668" lon="5.243179"/>
      <trkpt lat="51.307791" lon="5.249886"/>
      <trkpt lat="51.30823" lon="5.25135"/>
      <trkpt lat="51.309024" lon="5.253864"/>
      <trkpt lat="51.309522" lon="5.255494"/>
      <trkpt lat="51.309856" lon="5.25651"/>
      <trkpt lat="51.310092" lon="5.257537"/>
      <trkpt lat="51.31017" lon="5.25815"/>
      <trkpt lat="51.310219" lon="5.258795"/>
      <trkpt lat="51.310274" lon="5.259315"/>
      <trkpt lat="51.310391" lon="5.259846"/>
      <trkpt lat="51.310517" lon="5.260184"/>
      <trkpt lat="51.310696" lon="5.260573"/>
      <trkpt lat="51.311179" lon="5.261558"/>
      <trkpt lat="51.311425" lon="5.261999"/>
      <trkpt lat="51.312485" lon="5.263716"/>
      <trkpt lat="51.312877" lon="5.264321"/>
      <trkpt lat="51.313211" lon="5.264777"/>
      <trkpt lat="51.313183" lon="5.264832"/>
      <trkpt lat="51.313123" lon="5.26491"/>
      <trkpt lat="51.31264" lon="5.26556"/>
      <trkpt lat="51.31257" lon="5.2657"/>
      <trkpt lat="51.3125" lon="5.26593"/>
      <trkpt lat="51.312403" lon="5.266445"/>
      <trkpt lat="51.311905" lon="5.269338"/>
      <trkpt lat="51.311459" lon="5.271992"/>
      <trkpt lat="51.311346" lon="5.272609"/>
      <trkpt lat="51.310901" lon="5.274596"/>
      <trkpt lat="51.310901" lon="5.274596"/>
      <trkpt lat="51.31089" lon="5.274646"/>
      <trkpt lat="51.312473" lon="5.274355"/>
      <trkpt lat="51.31277" lon="5.274324"/>
      <trkpt lat="51.313208" lon="5.274329"/>
      <trkpt lat="51.314246" lon="5.27438"/>
      <trkpt lat="51.314264" lon="5.274534"/>
      <trkpt lat="51.314264" lon="5.274534"/>
      <trkpt lat="51.314598" lon="5.277437"/>
      <trkpt lat="51.314521" lon="5.277509"/>
      <trkpt lat="51.314371" lon="5.27765"/>
      <trkpt lat="51.314315" lon="5.27774"/>
      <trkpt lat="51.314291" lon="5.277925"/>
      <trkpt lat="51.314284" lon="5.278468"/>
      <trkpt lat="51.314123" lon="5.279534"/>
      <trkpt lat="51.314118" lon="5.279708"/>
      <trkpt lat="51.314124" lon="5.279879"/>
      <trkpt lat="51.314209" lon="5.280517"/>
      <trkpt lat="51.314325" lon="5.281308"/>
      <trkpt lat="51.314536" lon="5.282923"/>
      <trkpt lat="51.314751" lon="5.284327"/>
      <trkpt lat="51.31486" lon="5.285114"/>
      <trkpt lat="51.314912" lon="5.285655"/>
      <trkpt lat="51.315168" lon="5.288222"/>
      <trkpt lat="51.315278" lon="5.289624"/>
      <trkpt lat="51.315573" lon="5.290883"/>
      <trkpt lat="51.316365" lon="5.294033"/>
      <trkpt lat="51.317425" lon="5.29841"/>
      <trkpt lat="51.317883" lon="5.300356"/>
      <trkpt lat="51.317883" lon="5.300356"/>
      <trkpt lat="51.317899" lon="5.30042"/>
      <trkpt lat="51.317871" lon="5.300505"/>
      <trkpt lat="51.317849" lon="5.300668"/>
      <trkpt lat="51.31788" lon="5.300657"/>
      <trkpt lat="51.31794" lon="5.30066"/>
      <trkpt lat="51.318148" lon="5.300805"/>
      <trkpt lat="51.31882" lon="5.30131"/>
      <trkpt lat="51.31961" lon="5.30197"/>
      <trkpt lat="51.32099" lon="5.30335"/>
      <trkpt lat="51.325853" lon="5.30726"/>
      <trkpt lat="51.326103" lon="5.307443"/>
      <trkpt lat="51.32702" lon="5.307927"/>
      <trkpt lat="51.327132" lon="5.307989"/>
      <trkpt lat="51.32723" lon="5.30806"/>
      <trkpt lat="51.327546" lon="5.30852"/>
      <trkpt lat="51.327751" lon="5.308796"/>
      <trkpt lat="51.327978" lon="5.308976"/>
      <trkpt lat="51.328109" lon="5.30904"/>
      <trkpt lat="51.32822" lon="5.309074"/>
      <trkpt lat="51.328386" lon="5.309078"/>
      <trkpt lat="51.328534" lon="5.309057"/>
      <trkpt lat="51.32869" lon="5.309"/>
      <trkpt lat="51.32889" lon="5.30886"/>
      <trkpt lat="51.329057" lon="5.308692"/>
      <trkpt lat="51.33215" lon="5.30526"/>
      <trkpt lat="51.33233" lon="5.30511"/>
      <trkpt lat="51.3327" lon="5.30496"/>
      <trkpt lat="51.3329" lon="5.30494"/>
      <trkpt lat="51.3331" lon="5.30498"/>
      <trkpt lat="51.33322" lon="5.30505"/>
      <trkpt lat="51.33405" lon="5.30569"/>
      <trkpt lat="51.33994" lon="5.3104"/>
      <trkpt lat="51.34029" lon="5.31055"/>
      <trkpt lat="51.342766" lon="5.311109"/>
      <trkpt lat="51.342782" lon="5.310874"/>
      <trkpt lat="51.343086" lon="5.306238"/>
      <trkpt lat="51.343107" lon="5.306166"/>
      <trkpt lat="51.343149" lon="5.306029"/>
      <trkpt lat="51.346391" lon="5.299409"/>
      <trkpt lat="51.346487" lon="5.299513"/>
      <trkpt lat="51.347061" lon="5.300139"/>
      <trkpt lat="51.34734" lon="5.30042"/>
      <trkpt lat="51.34823" lon="5.30136"/>
      <trkpt lat="51.348269" lon="5.301275"/>
      <trkpt lat="51.348377" lon="5.301036"/>
      <trkpt lat="51.348527" lon="5.300734"/>
      <trkpt lat="51.349878" lon="5.297783"/>
      <trkpt lat="51.349935" lon="5.297685"/>
      <trkpt lat="51.350005" lon="5.297657"/>
      <trkpt lat="51.350057" lon="5.297684"/>
      <trkpt lat="51.350807" lon="5.297858"/>
      <trkpt lat="51.351247" lon="5.297991"/>
      <trkpt lat="51.351666" lon="5.298242"/>
      <trkpt lat="51.352094" lon="5.298478"/>
      <trkpt lat="51.353102" lon="5.299014"/>
      <trkpt lat="51.354077" lon="5.299418"/>
      <trkpt lat="51.354427" lon="5.299503"/>
      <trkpt lat="51.354424" lon="5.29934"/>
      <trkpt lat="51.354424" lon="5.29934"/>
      <trkpt lat="51.354383" lon="5.299075"/>
      <trkpt lat="51.354255" lon="5.298382"/>
      <trkpt lat="51.354214" lon="5.297838"/>
      <trkpt lat="51.354246" lon="5.297549"/>
      <trkpt lat="51.354278" lon="5.297345"/>
      <trkpt lat="51.354366" lon="5.297025"/>
      <trkpt lat="51.355146" lon="5.295019"/>
      <trkpt lat="51.355178" lon="5.294952"/>
      <trkpt lat="51.355283" lon="5.294853"/>
      <trkpt lat="51.355221" lon="5.294769"/>
      <trkpt lat="51.35291" lon="5.29164"/>
      <trkpt lat="51.35257" lon="5.29111"/>
      <trkpt lat="51.35103" lon="5.28841"/>
      <trkpt lat="51.35083" lon="5.28808"/>
      <trkpt lat="51.35061" lon="5.28778"/>
      <trkpt lat="51.35036" lon="5.28752"/>
      <trkpt lat="51.34994" lon="5.28722"/>
      <trkpt lat="51.34975" lon="5.287"/>
      <trkpt lat="51.349541" lon="5.286684"/>
      <trkpt lat="51.349462" lon="5.286529"/>
      <trkpt lat="51.348561" lon="5.284507"/>
      <trkpt lat="51.348401" lon="5.284132"/>
      <trkpt lat="51.34824" lon="5.28383"/>
      <trkpt lat="51.34733" lon="5.28248"/>
      <trkpt lat="51.34725" lon="5.28229"/>
      <trkpt lat="51.34725" lon="5.28215"/>
      <trkpt lat="51.34731" lon="5.28157"/>
      <trkpt lat="51.347416" lon="5.280837"/>
      <trkpt lat="51.347465" lon="5.280685"/>
      <trkpt lat="51.347592" lon="5.280492"/>
      <trkpt lat="51.348468" lon="5.279508"/>
      <trkpt lat="51.348483" lon="5.279127"/>
      <trkpt lat="51.348376" lon="5.278203"/>
      <trkpt lat="51.348107" lon="5.275481"/>
      <trkpt lat="51.34805" lon="5.274787"/>
      <trkpt lat="51.348046" lon="5.27457"/>
      <trkpt lat="51.348061" lon="5.274121"/>
      <trkpt lat="51.348098" lon="5.273789"/>
      <trkpt lat="51.348155" lon="5.273493"/>
      <trkpt lat="51.348262" lon="5.273044"/>
      <trkpt lat="51.348433" lon="5.27262"/>
      <trkpt lat="51.348657" lon="5.272229"/>
      <trkpt lat="51.34936" lon="5.271207"/>
      <trkpt lat="51.35112" lon="5.26875"/>
      <trkpt lat="51.35128" lon="5.26859"/>
      <trkpt lat="51.35147" lon="5.26844"/>
      <trkpt lat="51.35167" lon="5.26832"/>
      <trkpt lat="51.35219" lon="5.26813"/>
      <trkpt lat="51.35303" lon="5.26789"/>
      <trkpt lat="51.353856" lon="5.267508"/>
      <trkpt lat="51.353841" lon="5.267457"/>
      <trkpt lat="51.35272" lon="5.26371"/>
      <trkpt lat="51.352744" lon="5.261615"/>
      <trkpt lat="51.35268" lon="5.26079"/>
      <trkpt lat="51.3527" lon="5.26074"/>
      <trkpt lat="51.35266" lon="5.26066"/>
      <trkpt lat="51.352648" lon="5.2606"/>
      <trkpt lat="51.352648" lon="5.2606"/>
      <trkpt lat="51.352347" lon="5.259175"/>
      <trkpt lat="51.352287" lon="5.258946"/>
      <trkpt lat="51.352227" lon="5.258778"/>
      <trkpt lat="51.352162" lon="5.258632"/>
      <trkpt lat="51.351768" lon="5.257959"/>
      <trkpt lat="51.351407" lon="5.257381"/>
      <trkpt lat="51.351186" lon="5.257082"/>
      <trkpt lat="51.351113" lon="5.256957"/>
      <trkpt lat="51.35072" lon="5.256526"/>
      <trkpt lat="51.35024" lon="5.256108"/>
      <trkpt lat="51.349855" lon="5.255821"/>
      <trkpt lat="51.349803" lon="5.255727"/>
      <trkpt lat="51.349737" lon="5.255659"/>
      <trkpt lat="51.349631" lon="5.255646"/>
      <trkpt lat="51.349438" lon="5.255484"/>
      <trkpt lat="51.34881" lon="5.254782"/>
      <trkpt lat="51.34825" lon="5.25413"/>
      <trkpt lat="51.345568" lon="5.251183"/>
      <trkpt lat="51.345518" lon="5.251054"/>
      <trkpt lat="51.345264" lon="5.250713"/>
      <trkpt lat="51.345173" lon="5.250558"/>
      <trkpt lat="51.345059" lon="5.250313"/>
      <trkpt lat="51.344985" lon="5.250116"/>
      <trkpt lat="51.344914" lon="5.249838"/>
      <trkpt lat="51.344826" lon="5.249328"/>
      <trkpt lat="51.344784" lon="5.248361"/>
      <trkpt lat="51.344743" lon="5.248166"/>
      <trkpt lat="51.344712" lon="5.247361"/>
      <trkpt lat="51.344684" lon="5.247147"/>
      <trkpt lat="51.344642" lon="5.24694"/>
      <trkpt lat="51.344069" lon="5.244754"/>
      <trkpt lat="51.343965" lon="5.244414"/>
      <trkpt lat="51.343909" lon="5.244269"/>
      <trkpt lat="51.342931" lon="5.242191"/>
      <trkpt lat="51.342828" lon="5.241904"/>
      <trkpt lat="51.342736" lon="5.241538"/>
      <trkpt lat="51.342705" lon="5.24132"/>
      <trkpt lat="51.342723" lon="5.241085"/>
      <trkpt lat="51.342728" lon="5.240813"/>
      <trkpt lat="51.342753" lon="5.240511"/>
      <trkpt lat="51.342757" lon="5.240289"/>
      <trkpt lat="51.342811" lon="5.240069"/>
      <trkpt lat="51.342882" lon="5.239839"/>
      <trkpt lat="51.342976" lon="5.239616"/>
      <trkpt lat="51.346387" lon="5.232818"/>
      <trkpt lat="51.346561" lon="5.23244"/>
      <trkpt lat="51.34667" lon="5.232354"/>
      <trkpt lat="51.346834" lon="5.232087"/>
      <trkpt lat="51.346929" lon="5.231952"/>
      <trkpt lat="51.347208" lon="5.231623"/>
      <trkpt lat="51.347283" lon="5.231496"/>
      <trkpt lat="51.348173" lon="5.230669"/>
      <trkpt lat="51.348574" lon="5.230284"/>
      <trkpt lat="51.348655" lon="5.230252"/>
      <trkpt lat="51.349086" lon="5.229875"/>
      <trkpt lat="51.349159" lon="5.229751"/>
      <trkpt lat="51.349677" lon="5.229283"/>
      <trkpt lat="51.349763" lon="5.229204"/>
      <trkpt lat="51.350266" lon="5.228745"/>
      <trkpt lat="51.350398" lon="5.228636"/>
      <trkpt lat="51.350487" lon="5.228607"/>
      <trkpt lat="51.350567" lon="5.228555"/>
      <trkpt lat="51.350759" lon="5.228367"/>
      <trkpt lat="51.350865" lon="5.228186"/>
      <trkpt lat="51.350963" lon="5.228096"/>
      <trkpt lat="51.351478" lon="5.227517"/>
      <trkpt lat="51.351714" lon="5.22722"/>
      <trkpt lat="51.351898" lon="5.226942"/>
      <trkpt lat="51.35216" lon="5.22644"/>
      <trkpt lat="51.352312" lon="5.226085"/>
      <trkpt lat="51.352346" lon="5.225987"/>
      <trkpt lat="51.353045" lon="5.223964"/>
      <trkpt lat="51.353295" lon="5.223319"/>
      <trkpt lat="51.353475" lon="5.222974"/>
      <trkpt lat="51.353626" lon="5.222776"/>
      <trkpt lat="51.35391" lon="5.222482"/>
      <trkpt lat="51.35405" lon="5.222354"/>
      <trkpt lat="51.354294" lon="5.222195"/>
      <trkpt lat="51.35528" lon="5.221729"/>
      <trkpt lat="51.355392" lon="5.221744"/>
      <trkpt lat="51.355429" lon="5.221725"/>
      <trkpt lat="51.355454" lon="5.2217"/>
      <trkpt lat="51.355498" lon="5.221629"/>
      <trkpt lat="51.35636" lon="5.221232"/>
      <trkpt lat="51.360657" lon="5.219306"/>
      <trkpt lat="51.360743" lon="5.219281"/>
      <trkpt lat="51.360809" lon="5.219289"/>
      <trkpt lat="51.3609" lon="5.219278"/>
      <trkpt lat="51.361017" lon="5.219226"/>
      <trkpt lat="51.361207" lon="5.219228"/>
      <trkpt lat="51.361207" lon="5.219228"/>
      <trkpt lat="51.361207" lon="5.219228"/>
      <trkpt lat="51.361308" lon="5.21923"/>
      <trkpt lat="51.361477" lon="5.219212"/>
      <trkpt lat="51.361541" lon="5.219229"/>
      <trkpt lat="51.36161" lon="5.219222"/>
      <trkpt lat="51.361757" lon="5.219131"/>
      <trkpt lat="51.36186" lon="5.219058"/>
      <trkpt lat="51.361782" lon="5.21875"/>
      <trkpt lat="51.361573" lon="5.217698"/>
      <trkpt lat="51.361434" lon="5.216772"/>
      <trkpt lat="51.361269" lon="5.215529"/>
      <trkpt lat="51.36121" lon="5.21438"/>
      <trkpt lat="51.36122" lon="5.21302"/>
      <trkpt lat="51.361401" lon="5.210387"/>
      <trkpt lat="51.361621" lon="5.206717"/>
      <trkpt lat="51.361682" lon="5.206183"/>
      <trkpt lat="51.361756" lon="5.204861"/>
      <trkpt lat="51.361601" lon="5.204844"/>
      <trkpt lat="51.361531" lon="5.204847"/>
      <trkpt lat="51.3614" lon="5.204948"/>
      <trkpt lat="51.361354" lon="5.204986"/>
      <trkpt lat="51.361093" lon="5.205106"/>
      <trkpt lat="51.360831" lon="5.205196"/>
      <trkpt lat="51.35887" lon="5.205835"/>
      <trkpt lat="51.35873" lon="5.205841"/>
      <trkpt lat="51.358728" lon="5.205762"/>
      <trkpt lat="51.358728" lon="5.205762"/>
      <trkpt lat="51.358503" lon="5.194773"/>
      <trkpt lat="51.358435" lon="5.191885"/>
      <trkpt lat="51.357475" lon="5.185833"/>
      <trkpt lat="51.35746" lon="5.185613"/>
      <trkpt lat="51.357436" lon="5.185389"/>
      <trkpt lat="51.357894" lon="5.180826"/>
      <trkpt lat="51.357897" lon="5.180589"/>
      <trkpt lat="51.35789" lon="5.18044"/>
      <trkpt lat="51.35787" lon="5.18029"/>
      <trkpt lat="51.357593" lon="5.179274"/>
      <trkpt lat="51.35744" lon="5.178726"/>
      <trkpt lat="51.35747" lon="5.178484"/>
      <trkpt lat="51.357495" lon="5.178412"/>
      <trkpt lat="51.357581" lon="5.17824"/>
      <trkpt lat="51.357981" lon="5.177991"/>
      <trkpt lat="51.357865" lon="5.177645"/>
      <trkpt lat="51.35762" lon="5.17691"/>
      <trkpt lat="51.35748" lon="5.17657"/>
      <trkpt lat="51.35736" lon="5.17639"/>
      <trkpt lat="51.356831" lon="5.175702"/>
      <trkpt lat="51.356374" lon="5.174874"/>
      <trkpt lat="51.356178" lon="5.174628"/>
      <trkpt lat="51.356038" lon="5.174517"/>
      <trkpt lat="51.354799" lon="5.1739"/>
      <trkpt lat="51.354631" lon="5.173768"/>
      <trkpt lat="51.354038" lon="5.173166"/>
      <trkpt lat="51.351683" lon="5.170693"/>
      <trkpt lat="51.351545" lon="5.170515"/>
      <trkpt lat="51.351436" lon="5.170286"/>
      <trkpt lat="51.351371" lon="5.170089"/>
      <trkpt lat="51.351334" lon="5.169898"/>
      <trkpt lat="51.35131" lon="5.169683"/>
      <trkpt lat="51.351188" lon="5.168216"/>
      <trkpt lat="51.351148" lon="5.168011"/>
      <trkpt lat="51.351087" lon="5.167818"/>
      <trkpt lat="51.350986" lon="5.167581"/>
      <trkpt lat="51.350525" lon="5.166617"/>
      <trkpt lat="51.349987" lon="5.165451"/>
      <trkpt lat="51.349849" lon="5.165184"/>
      <trkpt lat="51.34951" lon="5.164661"/>
      <trkpt lat="51.34933" lon="5.164463"/>
      <trkpt lat="51.349186" lon="5.164337"/>
      <trkpt lat="51.348789" lon="5.164124"/>
      <trkpt lat="51.348676" lon="5.164033"/>
      <trkpt lat="51.348536" lon="5.163862"/>
      <trkpt lat="51.347977" lon="5.16296"/>
      <trkpt lat="51.347833" lon="5.162685"/>
      <trkpt lat="51.347745" lon="5.16245"/>
      <trkpt lat="51.347605" lon="5.161909"/>
      <trkpt lat="51.347511" lon="5.1617"/>
      <trkpt lat="51.347459" lon="5.161636"/>
      <trkpt lat="51.347377" lon="5.161577"/>
      <trkpt lat="51.347409" lon="5.161449"/>
      <trkpt lat="51.34746" lon="5.161302"/>
      <trkpt lat="51.347571" lon="5.161172"/>
      <trkpt lat="51.347571" lon="5.161172"/>
      <trkpt lat="51.347642" lon="5.161109"/>
      <trkpt lat="51.347666" lon="5.161052"/>
      <trkpt lat="51.347768" lon="5.161021"/>
      <trkpt lat="51.347938" lon="5.160886"/>
      <trkpt lat="51.348535" lon="5.160352"/>
      <trkpt lat="51.34885" lon="5.160084"/>
      <trkpt lat="51.34899" lon="5.159989"/>
      <trkpt lat="51.349298" lon="5.159827"/>
      <trkpt lat="51.350596" lon="5.159314"/>
      <trkpt lat="51.352837" lon="5.158592"/>
      <trkpt lat="51.353031" lon="5.158504"/>
      <trkpt lat="51.353535" lon="5.158336"/>
      <trkpt lat="51.353936" lon="5.158243"/>
      <trkpt lat="51.354068" lon="5.158243"/>
      <trkpt lat="51.35424" lon="5.15826"/>
      <trkpt lat="51.354714" lon="5.158269"/>
      <trkpt lat="51.355399" lon="5.15821"/>
      <trkpt lat="51.355885" lon="5.158126"/>
      <trkpt lat="51.356134" lon="5.158068"/>
      <trkpt lat="51.356544" lon="5.158051"/>
      <trkpt lat="51.357113" lon="5.157998"/>
      <trkpt lat="51.357226" lon="5.158014"/>
      <trkpt lat="51.357687" lon="5.158148"/>
      <trkpt lat="51.358298" lon="5.158342"/>
      <trkpt lat="51.358842" lon="5.158557"/>
      <trkpt lat="51.359304" lon="5.158776"/>
      <trkpt lat="51.359524" lon="5.158855"/>
      <trkpt lat="51.360555" lon="5.159045"/>
      <trkpt lat="51.360621" lon="5.159043"/>
      <trkpt lat="51.360751" lon="5.158997"/>
      <trkpt lat="51.360691" lon="5.158798"/>
      <trkpt lat="51.360615" lon="5.158584"/>
      <trkpt lat="51.359727" lon="5.155527"/>
      <trkpt lat="51.359711" lon="5.155356"/>
      <trkpt lat="51.359656" lon="5.155177"/>
      <trkpt lat="51.359593" lon="5.15505"/>
      <trkpt lat="51.35863" lon="5.151728"/>
      <trkpt lat="51.358713" lon="5.151657"/>
      <trkpt lat="51.358828" lon="5.15156"/>
      <trkpt lat="51.358828" lon="5.15156"/>
      <trkpt lat="51.360756" lon="5.149935"/>
      <trkpt lat="51.360807" lon="5.149875"/>
      <trkpt lat="51.360868" lon="5.149765"/>
      <trkpt lat="51.361037" lon="5.149337"/>
      <trkpt lat="51.361107" lon="5.14913"/>
      <trkpt lat="51.36194" lon="5.1459"/>
      <trkpt lat="51.36217" lon="5.14506"/>
      <trkpt lat="51.36221" lon="5.14497"/>
      <trkpt lat="51.36228" lon="5.14487"/>
      <trkpt lat="51.36306" lon="5.14425"/>
      <trkpt lat="51.36316" lon="5.14419"/>
      <trkpt lat="51.36538" lon="5.143813"/>
      <trkpt lat="51.365493" lon="5.143783"/>
      <trkpt lat="51.36685" lon="5.1429"/>
      <trkpt lat="51.36697" lon="5.1428"/>
      <trkpt lat="51.36712" lon="5.14263"/>
      <trkpt lat="51.36718" lon="5.14249"/>
      <trkpt lat="51.36755" lon="5.14133"/>
      <trkpt lat="51.36781" lon="5.14041"/>
      <trkpt lat="51.36799" lon="5.13989"/>
      <trkpt lat="51.36811" lon="5.1396"/>
      <trkpt lat="51.36882" lon="5.1381"/>
      <trkpt lat="51.36923" lon="5.13719"/>
      <trkpt lat="51.36978" lon="5.13614"/>
      <trkpt lat="51.370814" lon="5.134504"/>
      <trkpt lat="51.371968" lon="5.132643"/>
      <trkpt lat="51.372184" lon="5.132213"/>
      <trkpt lat="51.372887" lon="5.130711"/>
      <trkpt lat="51.373051" lon="5.130405"/>
      <trkpt lat="51.373109" lon="5.130276"/>
      <trkpt lat="51.373971" lon="5.125245"/>
      <trkpt lat="51.374331" lon="5.123265"/>
      <trkpt lat="51.374517" lon="5.123363"/>
      <trkpt lat="51.37695" lon="5.12464"/>
      <trkpt lat="51.37708" lon="5.12467"/>
      <trkpt lat="51.378486" lon="5.124774"/>
      <trkpt lat="51.37897" lon="5.12481"/>
      <trkpt lat="51.37912" lon="5.12478"/>
      <trkpt lat="51.382321" lon="5.12331"/>
      <trkpt lat="51.383917" lon="5.122604"/>
      <trkpt lat="51.384017" lon="5.122475"/>
      <trkpt lat="51.383891" lon="5.122319"/>
      <trkpt lat="51.383805" lon="5.122195"/>
      <trkpt lat="51.382563" lon="5.120382"/>
      <trkpt lat="51.382427" lon="5.120106"/>
      <trkpt lat="51.38167" lon="5.118273"/>
      <trkpt lat="51.38157" lon="5.117994"/>
      <trkpt lat="51.381424" lon="5.11761"/>
      <trkpt lat="51.381187" lon="5.116911"/>
      <trkpt lat="51.381112" lon="5.116621"/>
      <trkpt lat="51.381094" lon="5.116258"/>
      <trkpt lat="51.381088" lon="5.115738"/>
      <trkpt lat="51.381105" lon="5.115371"/>
      <trkpt lat="51.381235" lon="5.114671"/>
      <trkpt lat="51.38125" lon="5.11402"/>
      <trkpt lat="51.381157" lon="5.110837"/>
      <trkpt lat="51.3811" lon="5.1095"/>
      <trkpt lat="51.381044" lon="5.107742"/>
      <trkpt lat="51.380932" lon="5.104627"/>
      <trkpt lat="51.380874" lon="5.102754"/>
      <trkpt lat="51.380856" lon="5.102259"/>
      <trkpt lat="51.380856" lon="5.102259"/>
      <trkpt lat="51.380846" lon="5.101925"/>
      <trkpt lat="51.380899" lon="5.101376"/>
      <trkpt lat="51.381137" lon="5.099842"/>
      <trkpt lat="51.381313" lon="5.098546"/>
      <trkpt lat="51.381405" lon="5.097753"/>
      <trkpt lat="51.381454" lon="5.097715"/>
      <trkpt lat="51.381513" lon="5.097669"/>
      <trkpt lat="51.384514" lon="5.093475"/>
      <trkpt lat="51.385198" lon="5.09256"/>
      <trkpt lat="51.3855288448036" lon="5.0920720347196795"/>
      <trkpt lat="51.385859689607194" lon="5.091584069439359"/>
      <trkpt lat="51.386190534410794" lon="5.091096104159039"/>
      <trkpt lat="51.386472251945605" lon="5.090680597025937"/>
      <trkpt lat="51.38666868099094" lon="5.091041427849007"/>
      <trkpt lat="51.386687" lon="5.091069"/>
      <trkpt lat="51.388349" lon="5.093999"/>
      <trkpt lat="51.389198" lon="5.095425"/>
      <trkpt lat="51.390833" lon="5.098234"/>
      <trkpt lat="51.391474" lon="5.099371"/>
      <trkpt lat="51.39229" lon="5.100765"/>
      <trkpt lat="51.392291" lon="5.100828"/>
      <trkpt lat="51.392292" lon="5.100913"/>
      <trkpt lat="51.392167" lon="5.101558"/>
      <trkpt lat="51.392006" lon="5.102219"/>
      <trkpt lat="51.391868" lon="5.102932"/>
      <trkpt lat="51.391782" lon="5.103173"/>
      <trkpt lat="51.391706" lon="5.103283"/>
      <trkpt lat="51.39149" lon="5.103485"/>
      <trkpt lat="51.391501" lon="5.103494"/>
      <trkpt lat="51.392166" lon="5.10408"/>
      <trkpt lat="51.392973" lon="5.10476"/>
      <trkpt lat="51.393512" lon="5.105256"/>
      <trkpt lat="51.393613" lon="5.105362"/>
      <trkpt lat="51.393691" lon="5.105471"/>
      <trkpt lat="51.394239" lon="5.106955"/>
      <trkpt lat="51.394251" lon="5.10699"/>
      <trkpt lat="51.395826" lon="5.103479"/>
      <trkpt lat="51.39594" lon="5.10321"/>
      <trkpt lat="51.396502" lon="5.102003"/>
      <trkpt lat="51.397068" lon="5.10074"/>
      <trkpt lat="51.397103" lon="5.100789"/>
      <trkpt lat="51.40073" lon="5.10591"/>
      <trkpt lat="51.40113" lon="5.10652"/>
      <trkpt lat="51.403903" lon="5.111235"/>
      <trkpt lat="51.403943" lon="5.111173"/>
      <trkpt lat="51.405809" lon="5.108282"/>
      <trkpt lat="51.406267" lon="5.107629"/>
      <trkpt lat="51.40688" lon="5.106506"/>
      <trkpt lat="51.406938" lon="5.106436"/>
      <trkpt lat="51.406987" lon="5.106425"/>
      <trkpt lat="51.406987" lon="5.106425"/>
      <trkpt lat="51.407052" lon="5.106442"/>
      <trkpt lat="51.408538" lon="5.107873"/>
      <trkpt lat="51.410316" lon="5.109534"/>
      <trkpt lat="51.411708" lon="5.110913"/>
      <trkpt lat="51.411808" lon="5.110978"/>
      <trkpt lat="51.411791" lon="5.111032"/>
      <trkpt lat="51.411791" lon="5.111032"/>
      <trkpt lat="51.41024" lon="5.115908"/>
      <trkpt lat="51.410169" lon="5.116062"/>
      <trkpt lat="51.410087" lon="5.1162"/>
      <trkpt lat="51.409948" lon="5.116383"/>
      <trkpt lat="51.40902" lon="5.117426"/>
      <trkpt lat="51.40902" lon="5.117426"/>
      <trkpt lat="51.408992" lon="5.117458"/>
      <trkpt lat="51.410385" lon="5.12011"/>
      <trkpt lat="51.410978" lon="5.122671"/>
      <trkpt lat="51.411037" lon="5.122998"/>
      <trkpt lat="51.411167" lon="5.123415"/>
      <trkpt lat="51.411507" lon="5.124346"/>
      <trkpt lat="51.411638" lon="5.12467"/>
      <trkpt lat="51.411745" lon="5.124727"/>
      <trkpt lat="51.411908" lon="5.124907"/>
      <trkpt lat="51.412116" lon="5.12539"/>
      <trkpt lat="51.413341" lon="5.129174"/>
      <trkpt lat="51.413359" lon="5.12916"/>
      <trkpt lat="51.41381" lon="5.12879"/>
      <trkpt lat="51.413844" lon="5.128901"/>
      <trkpt lat="51.4155" lon="5.13423"/>
      <trkpt lat="51.41555" lon="5.13459"/>
      <trkpt lat="51.41555" lon="5.1349"/>
      <trkpt lat="51.41551" lon="5.1352"/>
      <trkpt lat="51.41546" lon="5.13542"/>
      <trkpt lat="51.41504" lon="5.13841"/>
      <trkpt lat="51.414795" lon="5.139936"/>
      <trkpt lat="51.414792" lon="5.140117"/>
      <trkpt lat="51.414809" lon="5.140329"/>
      <trkpt lat="51.41494" lon="5.1413"/>
      <trkpt lat="51.41517" lon="5.14201"/>
      <trkpt lat="51.415849" lon="5.144173"/>
      <trkpt lat="51.415896" lon="5.144374"/>
      <trkpt lat="51.415928" lon="5.14458"/>
      <trkpt lat="51.41592" lon="5.14479"/>
      <trkpt lat="51.415611" lon="5.145717"/>
      <trkpt lat="51.415594" lon="5.145767"/>
      <trkpt lat="51.415579" lon="5.14586"/>
      <trkpt lat="51.415586" lon="5.145945"/>
      <trkpt lat="51.415611" lon="5.146043"/>
      <trkpt lat="51.415337" lon="5.146229"/>
      <trkpt lat="51.41518" lon="5.146387"/>
      <trkpt lat="51.414215" lon="5.14713"/>
      <trkpt lat="51.412843" lon="5.148382"/>
      <trkpt lat="51.412681" lon="5.148469"/>
      <trkpt lat="51.412517" lon="5.148598"/>
      <trkpt lat="51.412258" lon="5.148845"/>
      <trkpt lat="51.412048" lon="5.149029"/>
      <trkpt lat="51.411887" lon="5.149191"/>
      <trkpt lat="51.41174" lon="5.149369"/>
      <trkpt lat="51.410969" lon="5.150115"/>
      <trkpt lat="51.410297" lon="5.150748"/>
      <trkpt lat="51.409582" lon="5.151365"/>
      <trkpt lat="51.40898" lon="5.15182"/>
      <trkpt lat="51.408483" lon="5.152146"/>
      <trkpt lat="51.407883" lon="5.152498"/>
      <trkpt lat="51.407236" lon="5.152813"/>
      <trkpt lat="51.40689" lon="5.152935"/>
      <trkpt lat="51.406797" lon="5.152941"/>
      <trkpt lat="51.406751" lon="5.152862"/>
      <trkpt lat="51.406706" lon="5.152833"/>
      <trkpt lat="51.406683" lon="5.152821"/>
      <trkpt lat="51.406644" lon="5.152822"/>
      <trkpt lat="51.406618" lon="5.152838"/>
      <trkpt lat="51.406577" lon="5.152864"/>
      <trkpt lat="51.406552" lon="5.1529"/>
      <trkpt lat="51.406532" lon="5.152944"/>
      <trkpt lat="51.406513" lon="5.153046"/>
      <trkpt lat="51.406515" lon="5.153112"/>
      <trkpt lat="51.406529" lon="5.153175"/>
      <trkpt lat="51.406551" lon="5.153226"/>
      <trkpt lat="51.406613" lon="5.153298"/>
      <trkpt lat="51.406622" lon="5.153526"/>
      <trkpt lat="51.406649" lon="5.153733"/>
      <trkpt lat="51.406652" lon="5.154111"/>
      <trkpt lat="51.406666" lon="5.154437"/>
      <trkpt lat="51.406708" lon="5.154715"/>
      <trkpt lat="51.406875" lon="5.15552"/>
      <trkpt lat="51.407085" lon="5.156341"/>
      <trkpt lat="51.407889" lon="5.158537"/>
      <trkpt lat="51.407974" lon="5.158832"/>
      <trkpt lat="51.40804" lon="5.15914"/>
      <trkpt lat="51.408072" lon="5.159375"/>
      <trkpt lat="51.408086" lon="5.159611"/>
      <trkpt lat="51.408158" lon="5.162257"/>
      <trkpt lat="51.408203" lon="5.162694"/>
      <trkpt lat="51.40846" lon="5.16402"/>
      <trkpt lat="51.408523" lon="5.164301"/>
      <trkpt lat="51.408953" lon="5.166427"/>
      <trkpt lat="51.408953" lon="5.166427"/>
      <trkpt lat="51.408959" lon="5.166454"/>
      <trkpt lat="51.408859" lon="5.166501"/>
      <trkpt lat="51.408215" lon="5.166813"/>
      <trkpt lat="51.406963" lon="5.16735"/>
      <trkpt lat="51.40667" lon="5.167459"/>
      <trkpt lat="51.405562" lon="5.168039"/>
      <trkpt lat="51.405562" lon="5.168039"/>
      <trkpt lat="51.405562" lon="5.168039"/>
      <trkpt lat="51.404314" lon="5.168635"/>
      <trkpt lat="51.403503" lon="5.169002"/>
      <trkpt lat="51.403075" lon="5.169264"/>
      <trkpt lat="51.402501" lon="5.169594"/>
      <trkpt lat="51.402592" lon="5.170027"/>
      <trkpt lat="51.402592" lon="5.170027"/>
      <trkpt lat="51.402646" lon="5.170283"/>
      <trkpt lat="51.402997" lon="5.171737"/>
      <trkpt lat="51.403132" lon="5.172242"/>
      <trkpt lat="51.403574" lon="5.17294"/>
      <trkpt lat="51.404085" lon="5.173593"/>
      <trkpt lat="51.40409" lon="5.1736"/>
      <trkpt lat="51.40412" lon="5.17368"/>
      <trkpt lat="51.40411" lon="5.17384"/>
      <trkpt lat="51.403904" lon="5.174446"/>
      <trkpt lat="51.403706" lon="5.174956"/>
      <trkpt lat="51.40365" lon="5.175139"/>
      <trkpt lat="51.403434" lon="5.176566"/>
      <trkpt lat="51.403526" lon="5.176587"/>
      <trkpt lat="51.40428" lon="5.17676"/>
      <trkpt lat="51.40528" lon="5.177011"/>
      <trkpt lat="51.40528" lon="5.177011"/>
      <trkpt lat="51.405282" lon="5.177012"/>
      <trkpt lat="51.404275" lon="5.1791"/>
      <trkpt lat="51.403677" lon="5.18037"/>
      <trkpt lat="51.40309" lon="5.18158"/>
      <trkpt lat="51.40317" lon="5.181758"/>
      <trkpt lat="51.40354" lon="5.182588"/>
      <trkpt lat="51.404086" lon="5.183878"/>
      <trkpt lat="51.404596" lon="5.18505"/>
      <trkpt lat="51.404846" lon="5.185529"/>
      <trkpt lat="51.404977" lon="5.185672"/>
      <trkpt lat="51.405201" lon="5.185712"/>
      <trkpt lat="51.40538" lon="5.185768"/>
      <trkpt lat="51.405465" lon="5.185792"/>
      <trkpt lat="51.404877" lon="5.190889"/>
      <trkpt lat="51.404731" lon="5.192329"/>
      <trkpt lat="51.404603" lon="5.193391"/>
      <trkpt lat="51.404582" lon="5.193756"/>
      <trkpt lat="51.404596" lon="5.194284"/>
      <trkpt lat="51.404634" lon="5.194838"/>
      <trkpt lat="51.404927" lon="5.199732"/>
      <trkpt lat="51.404978" lon="5.200644"/>
      <trkpt lat="51.405015" lon="5.201529"/>
      <trkpt lat="51.405038" lon="5.202292"/>
      <trkpt lat="51.405036" lon="5.203019"/>
      <trkpt lat="51.404973" lon="5.204363"/>
      <trkpt lat="51.40502" lon="5.204665"/>
      <trkpt lat="51.404955" lon="5.204845"/>
      <trkpt lat="51.404908" lon="5.205596"/>
      <trkpt lat="51.404792" lon="5.205669"/>
      <trkpt lat="51.404834" lon="5.205778"/>
      <trkpt lat="51.404834" lon="5.205778"/>
      <trkpt lat="51.405041" lon="5.20631"/>
      <trkpt lat="51.405233" lon="5.206702"/>
      <trkpt lat="51.405244" lon="5.206747"/>
      <trkpt lat="51.405238" lon="5.206985"/>
      <trkpt lat="51.405212" lon="5.207039"/>
      <trkpt lat="51.404934" lon="5.207366"/>
      <trkpt lat="51.404712" lon="5.207643"/>
      <trkpt lat="51.404636" lon="5.207774"/>
      <trkpt lat="51.404592" lon="5.207878"/>
      <trkpt lat="51.404553" lon="5.208012"/>
      <trkpt lat="51.404512" lon="5.208256"/>
      <trkpt lat="51.40447" lon="5.20866"/>
      <trkpt lat="51.404328" lon="5.209747"/>
      <trkpt lat="51.40407" lon="5.211215"/>
      <trkpt lat="51.404016" lon="5.21135"/>
      <trkpt lat="51.403988" lon="5.211373"/>
      <trkpt lat="51.404032" lon="5.211607"/>
      <trkpt lat="51.40404" lon="5.21183"/>
      <trkpt lat="51.404085" lon="5.212161"/>
      <trkpt lat="51.40442" lon="5.21316"/>
      <trkpt lat="51.4045" lon="5.21347"/>
      <trkpt lat="51.40456" lon="5.21378"/>
      <trkpt lat="51.404593" lon="5.214167"/>
      <trkpt lat="51.404605" lon="5.214513"/>
      <trkpt lat="51.404577" lon="5.215323"/>
      <trkpt lat="51.404544" lon="5.215807"/>
      <trkpt lat="51.404496" lon="5.216233"/>
      <trkpt lat="51.404427" lon="5.216671"/>
      <trkpt lat="51.404363" lon="5.216989"/>
      <trkpt lat="51.40431" lon="5.217168"/>
      <trkpt lat="51.40424" lon="5.21734"/>
      <trkpt lat="51.404051" lon="5.217681"/>
      <trkpt lat="51.403873" lon="5.217949"/>
      <trkpt lat="51.40287" lon="5.21957"/>
      <trkpt lat="51.40268" lon="5.21992"/>
      <trkpt lat="51.401943" lon="5.222112"/>
      <trkpt lat="51.400081" lon="5.227561"/>
      <trkpt lat="51.398879" lon="5.230921"/>
      <trkpt lat="51.398756" lon="5.231363"/>
      <trkpt lat="51.398645" lon="5.231865"/>
      <trkpt lat="51.39857" lon="5.232639"/>
      <trkpt lat="51.398566" lon="5.233302"/>
      <trkpt lat="51.398573" lon="5.233511"/>
      <trkpt lat="51.398582" lon="5.2336"/>
      <trkpt lat="51.398596" lon="5.23373"/>
      <trkpt lat="51.398736" lon="5.235048"/>
      <trkpt lat="51.399018" lon="5.237495"/>
      <trkpt lat="51.399403" lon="5.239364"/>
      <trkpt lat="51.399507" lon="5.239926"/>
      <trkpt lat="51.399535" lon="5.240153"/>
      <trkpt lat="51.39953" lon="5.24034"/>
      <trkpt lat="51.399508" lon="5.240452"/>
      <trkpt lat="51.399572" lon="5.240577"/>
      <trkpt lat="51.39968" lon="5.24083"/>
      <trkpt lat="51.40003" lon="5.24183"/>
      <trkpt lat="51.40026" lon="5.24243"/>
      <trkpt lat="51.401018" lon="5.243876"/>
      <trkpt lat="51.401297" lon="5.244471"/>
      <trkpt lat="51.401383" lon="5.244738"/>
      <trkpt lat="51.40158" lon="5.245917"/>
      <trkpt lat="51.4017" lon="5.246325"/>
      <trkpt lat="51.401814" lon="5.246593"/>
      <trkpt lat="51.402022" lon="5.246988"/>
      <trkpt lat="51.402526" lon="5.247824"/>
      <trkpt lat="51.402672" lon="5.248115"/>
      <trkpt lat="51.403371" lon="5.249807"/>
      <trkpt lat="51.403512" lon="5.250322"/>
      <trkpt lat="51.40443" lon="5.25473"/>
      <trkpt lat="51.404514" lon="5.254604"/>
      <trkpt lat="51.404514" lon="5.254604"/>
      <trkpt lat="51.40465" lon="5.2544"/>
      <trkpt lat="51.40548" lon="5.25293"/>
      <trkpt lat="51.40567" lon="5.25269"/>
      <trkpt lat="51.40591" lon="5.25249"/>
      <trkpt lat="51.40647" lon="5.25215"/>
      <trkpt lat="51.40689" lon="5.25192"/>
      <trkpt lat="51.40708" lon="5.25179"/>
      <trkpt lat="51.40735" lon="5.25167"/>
      <trkpt lat="51.407562" lon="5.251617"/>
      <trkpt lat="51.408203" lon="5.251588"/>
      <trkpt lat="51.408362" lon="5.25153"/>
      <trkpt lat="51.409765" lon="5.250715"/>
      <trkpt lat="51.410718" lon="5.250184"/>
      <trkpt lat="51.411023" lon="5.249994"/>
      <trkpt lat="51.411305" lon="5.249838"/>
      <trkpt lat="51.41158" lon="5.24964"/>
      <trkpt lat="51.411723" lon="5.249495"/>
      <trkpt lat="51.413106" lon="5.247644"/>
      <trkpt lat="51.413899" lon="5.246561"/>
      <trkpt lat="51.414889" lon="5.24527"/>
      <trkpt lat="51.415276" lon="5.24491"/>
      <trkpt lat="51.41626" lon="5.24394"/>
      <trkpt lat="51.418066" lon="5.242061"/>
      <trkpt lat="51.418143" lon="5.242191"/>
      <trkpt lat="51.4202" lon="5.24509"/>
      <trkpt lat="51.42087" lon="5.24608"/>
      <trkpt lat="51.422642" lon="5.249019"/>
      <trkpt lat="51.425997" lon="5.254719"/>
      <trkpt lat="51.426783" lon="5.256036"/>
      <trkpt lat="51.42778" lon="5.25777"/>
      <trkpt lat="51.428076" lon="5.258302"/>
      <trkpt lat="51.428152" lon="5.258489"/>
      <trkpt lat="51.428548" lon="5.259937"/>
      <trkpt lat="51.42904" lon="5.26181"/>
      <trkpt lat="51.429482" lon="5.263433"/>
      <trkpt lat="51.429946" lon="5.26523"/>
      <trkpt lat="51.430018" lon="5.265471"/>
      <trkpt lat="51.430214" lon="5.266215"/>
      <trkpt lat="51.430277" lon="5.266355"/>
      <trkpt lat="51.430369" lon="5.266525"/>
      <trkpt lat="51.430288" lon="5.266676"/>
      <trkpt lat="51.42975" lon="5.26773"/>
      <trkpt lat="51.42955" lon="5.26822"/>
      <trkpt lat="51.42945" lon="5.26858"/>
      <trkpt lat="51.42938" lon="5.26903"/>
      <trkpt lat="51.428921" lon="5.272999"/>
      <trkpt lat="51.428862" lon="5.273298"/>
      <trkpt lat="51.428674" lon="5.273825"/>
      <trkpt lat="51.428567" lon="5.274016"/>
      <trkpt lat="51.428165" lon="5.274625"/>
      <trkpt lat="51.428053" lon="5.27484"/>
      <trkpt lat="51.427554" lon="5.276028"/>
      <trkpt lat="51.427514" lon="5.276128"/>
      <trkpt lat="51.427063" lon="5.277116"/>
      <trkpt lat="51.426471" lon="5.278352"/>
      <trkpt lat="51.42639" lon="5.278538"/>
      <trkpt lat="51.426314" lon="5.278765"/>
      <trkpt lat="51.426266" lon="5.278953"/>
      <trkpt lat="51.425824" lon="5.281235"/>
      <trkpt lat="51.425589" lon="5.28241"/>
      <trkpt lat="51.425551" lon="5.282557"/>
      <trkpt lat="51.425647" lon="5.282618"/>
      <trkpt lat="51.425689" lon="5.282646"/>
      <trkpt lat="51.425774" lon="5.282705"/>
      <trkpt lat="51.425863" lon="5.282731"/>
      <trkpt lat="51.425966" lon="5.282726"/>
      <trkpt lat="51.426081" lon="5.282681"/>
      <trkpt lat="51.427488" lon="5.281998"/>
      <trkpt lat="51.428002" lon="5.281657"/>
      <trkpt lat="51.428128" lon="5.281556"/>
      <trkpt lat="51.42831" lon="5.281347"/>
      <trkpt lat="51.429174" lon="5.279575"/>
      <trkpt lat="51.42928" lon="5.279436"/>
      <trkpt lat="51.429426" lon="5.279355"/>
      <trkpt lat="51.430804" lon="5.278904"/>
      <trkpt lat="51.430933" lon="5.278922"/>
      <trkpt lat="51.431002" lon="5.278977"/>
      <trkpt lat="51.431276" lon="5.279357"/>
      <trkpt lat="51.432422" lon="5.281018"/>
      <trkpt lat="51.432465" lon="5.281044"/>
      <trkpt lat="51.432554" lon="5.281098"/>
      <trkpt lat="51.432504" lon="5.281298"/>
      <trkpt lat="51.432504" lon="5.281298"/>
      <trkpt lat="51.432483" lon="5.281386"/>
      <trkpt lat="51.432473" lon="5.281472"/>
      <trkpt lat="51.432484" lon="5.281543"/>
      <trkpt lat="51.432502" lon="5.281597"/>
      <trkpt lat="51.43349" lon="5.282977"/>
      <trkpt lat="51.433706" lon="5.28333"/>
      <trkpt lat="51.435039" lon="5.285239"/>
      <trkpt lat="51.435332" lon="5.285659"/>
      <trkpt lat="51.43538" lon="5.285727"/>
      <trkpt lat="51.434906" lon="5.285942"/>
      <trkpt lat="51.434906" lon="5.285942"/>
      <trkpt lat="51.433411" lon="5.286621"/>
      <trkpt lat="51.43143" lon="5.287636"/>
      <trkpt lat="51.430285" lon="5.288265"/>
      <trkpt lat="51.429415" lon="5.288849"/>
      <trkpt lat="51.429094" lon="5.289078"/>
      <trkpt lat="51.428516" lon="5.289558"/>
      <trkpt lat="51.427653" lon="5.290314"/>
      <trkpt lat="51.427054" lon="5.29094"/>
      <trkpt lat="51.426849" lon="5.291103"/>
      <trkpt lat="51.426668" lon="5.29119"/>
      <trkpt lat="51.424896" lon="5.29183"/>
      <trkpt lat="51.424453" lon="5.291943"/>
      <trkpt lat="51.423928" lon="5.292002"/>
      <trkpt lat="51.423662" lon="5.292049"/>
      <trkpt lat="51.423652" lon="5.292176"/>
      <trkpt lat="51.423647" lon="5.292239"/>
      <trkpt lat="51.422133" lon="5.293521"/>
      <trkpt lat="51.422074" lon="5.293551"/>
      <trkpt lat="51.421897" lon="5.293538"/>
      <trkpt lat="51.421838" lon="5.293568"/>
      <trkpt lat="51.421692" lon="5.293686"/>
      <trkpt lat="51.42161" lon="5.29379"/>
      <trkpt lat="51.421045" lon="5.293789"/>
      <trkpt lat="51.420982" lon="5.29384"/>
      <trkpt lat="51.421096" lon="5.294118"/>
      <trkpt lat="51.421279" lon="5.294565"/>
      <trkpt lat="51.421552" lon="5.295186"/>
      <trkpt lat="51.422226" lon="5.296513"/>
      <trkpt lat="51.422343" lon="5.296729"/>
      <trkpt lat="51.422416" lon="5.296841"/>
      <trkpt lat="51.422458" lon="5.296978"/>
      <trkpt lat="51.422541" lon="5.297099"/>
      <trkpt lat="51.422587" lon="5.29713"/>
      <trkpt lat="51.422791" lon="5.29738"/>
      <trkpt lat="51.425365" lon="5.300246"/>
      <trkpt lat="51.42564" lon="5.3006"/>
      <trkpt lat="51.42608" lon="5.30123"/>
      <trkpt lat="51.427357" lon="5.303222"/>
      <trkpt lat="51.428037" lon="5.304373"/>
      <trkpt lat="51.429378" lon="5.306973"/>
      <trkpt lat="51.430602" lon="5.309383"/>
      <trkpt lat="51.431133" lon="5.31048"/>
      <trkpt lat="51.431804" lon="5.311785"/>
      <trkpt lat="51.432109" lon="5.312348"/>
      <trkpt lat="51.432468" lon="5.312902"/>
      <trkpt lat="51.433088" lon="5.313858"/>
      <trkpt lat="51.4355" lon="5.31745"/>
      <trkpt lat="51.43581" lon="5.31777"/>
      <trkpt lat="51.436697" lon="5.318539"/>
      <trkpt lat="51.436836" lon="5.318695"/>
      <trkpt lat="51.43696" lon="5.318886"/>
      <trkpt lat="51.437067" lon="5.319111"/>
      <trkpt lat="51.437187" lon="5.319387"/>
      <trkpt lat="51.437341" lon="5.319777"/>
      <trkpt lat="51.437522" lon="5.320312"/>
      <trkpt lat="51.437691" lon="5.320888"/>
      <trkpt lat="51.438125" lon="5.322296"/>
      <trkpt lat="51.438602" lon="5.323966"/>
      <trkpt lat="51.438607" lon="5.323981"/>
      <trkpt lat="51.438556" lon="5.324018"/>
      <trkpt lat="51.437954" lon="5.324611"/>
      <trkpt lat="51.437906" lon="5.324759"/>
      <trkpt lat="51.436332" lon="5.329705"/>
      <trkpt lat="51.434965" lon="5.333235"/>
      <trkpt lat="51.433598" lon="5.336803"/>
      <trkpt lat="51.433507" lon="5.336991"/>
      <trkpt lat="51.433489" lon="5.337013"/>
      <trkpt lat="51.432805" lon="5.337552"/>
      <trkpt lat="51.432368" lon="5.33788"/>
      <trkpt lat="51.43131" lon="5.33786"/>
      <trkpt lat="51.4311" lon="5.3378"/>
      <trkpt lat="51.43035" lon="5.33744"/>
      <trkpt lat="51.43021" lon="5.33739"/>
      <trkpt lat="51.43002" lon="5.33727"/>
      <trkpt lat="51.42966" lon="5.33682"/>
      <trkpt lat="51.42947" lon="5.33662"/>
      <trkpt lat="51.427795" lon="5.335391"/>
      <trkpt lat="51.427776" lon="5.335377"/>
      <trkpt lat="51.427581" lon="5.335578"/>
      <trkpt lat="51.426647" lon="5.33654"/>
      <trkpt lat="51.426357" lon="5.336887"/>
      <trkpt lat="51.425503" lon="5.338078"/>
      <trkpt lat="51.425492" lon="5.338135"/>
      <trkpt lat="51.425493" lon="5.338232"/>
      <trkpt lat="51.425774" lon="5.339011"/>
      <trkpt lat="51.425789" lon="5.339116"/>
      <trkpt lat="51.425743" lon="5.339251"/>
      <trkpt lat="51.42498" lon="5.33983"/>
      <trkpt lat="51.425068" lon="5.340069"/>
      <trkpt lat="51.42547" lon="5.34117"/>
      <trkpt lat="51.42554" lon="5.34145"/>
      <trkpt lat="51.425804" lon="5.34635"/>
      <trkpt lat="51.425784" lon="5.346543"/>
      <trkpt lat="51.42575" lon="5.346741"/>
      <trkpt lat="51.425545" lon="5.34762"/>
      <trkpt lat="51.425441" lon="5.347864"/>
      <trkpt lat="51.425332" lon="5.347964"/>
      <trkpt lat="51.423991" lon="5.34837"/>
      <trkpt lat="51.423042" lon="5.348682"/>
      <trkpt lat="51.42277" lon="5.34879"/>
      <trkpt lat="51.422478" lon="5.348721"/>
      <trkpt lat="51.422048" lon="5.348585"/>
      <trkpt lat="51.421949" lon="5.348563"/>
      <trkpt lat="51.421814" lon="5.348553"/>
      <trkpt lat="51.421598" lon="5.348559"/>
      <trkpt lat="51.421088" lon="5.348684"/>
      <trkpt lat="51.420852" lon="5.348764"/>
      <trkpt lat="51.420648" lon="5.348877"/>
      <trkpt lat="51.419986" lon="5.349536"/>
      <trkpt lat="51.419679" lon="5.349775"/>
      <trkpt lat="51.417769" lon="5.350533"/>
      <trkpt lat="51.4174" lon="5.350696"/>
      <trkpt lat="51.41567" lon="5.351624"/>
      <trkpt lat="51.415657" lon="5.351553"/>
      <trkpt lat="51.4156" lon="5.35124"/>
      <trkpt lat="51.415492" lon="5.350438"/>
      <trkpt lat="51.415444" lon="5.350456"/>
      <trkpt lat="51.41478" lon="5.350716"/>
      <trkpt lat="51.414483" lon="5.350913"/>
      <trkpt lat="51.414247" lon="5.351176"/>
      <trkpt lat="51.41245" lon="5.353166"/>
      <trkpt lat="51.411888" lon="5.35377"/>
      <trkpt lat="51.41192" lon="5.35397"/>
      <trkpt lat="51.412164" lon="5.355159"/>
      <trkpt lat="51.412201" lon="5.355471"/>
      <trkpt lat="51.41213" lon="5.355536"/>
      <trkpt lat="51.41185" lon="5.3557"/>
      <trkpt lat="51.41173" lon="5.355797"/>
      <trkpt lat="51.411607" lon="5.355963"/>
      <trkpt lat="51.411473" lon="5.356248"/>
      <trkpt lat="51.411365" lon="5.356625"/>
      <trkpt lat="51.411152" lon="5.35799"/>
      <trkpt lat="51.411139" lon="5.35807"/>
      <trkpt lat="51.411137" lon="5.358081"/>
      <trkpt lat="51.411054" lon="5.358015"/>
      <trkpt lat="51.410238" lon="5.35737"/>
      <trkpt lat="51.409575" lon="5.35677"/>
      <trkpt lat="51.40924" lon="5.356534"/>
      <trkpt lat="51.409018" lon="5.356413"/>
      <trkpt lat="51.408773" lon="5.356328"/>
      <trkpt lat="51.408765" lon="5.356406"/>
      <trkpt lat="51.408707" lon="5.356597"/>
      <trkpt lat="51.40857" lon="5.356933"/>
      <trkpt lat="51.408829" lon="5.357049"/>
      <trkpt lat="51.409175" lon="5.357157"/>
    </trkseg>
  </trk>
</gpx>
